Recognition Number,Name,Legal Name,Acronym,Email,Website,Head Office Address Line 1,Head Office Address Line 2,Head Office Address Town/City,Head Office Address County,Head Office Address Postcode,Head Office Address Country,Head Office Address Telephone Number,Ofqual Status,Ofqual Recognised From,Ofqual Recognised To,CCEA Regulation Status,CCEA Regulation Recognised From,CCEA Regulation Recognised To
"RN5339","Education Qualifications and Awards","Education Qualifications and Awards Limited","EQ Awards ","Compliance@eqawards.org.uk","http://www.eqawards.org.uk","Education Qualifications and Awards","6 Scirocco Close, Moulton Park Office Village","Northampton",,"NN3 6AP","United Kingdom","01293344556","Surrendered","2011-05-12 00:00:00.0000000","2020-11-01 00:00:00.0000000","Surrendered","2016-05-04 00:00:00.0000000","2019-09-30 00:00:00.0000000"
"RN5355","Training Qualifications UK Ltd","Training Qualifications UK Ltd","TQUK","support@tquk.org","http://www.tquk.org","Crossgate House","Cross Street",,"Sale","M33 7FT","United Kingdom","03333 583344","Recognised","2013-09-17 00:00:00.0000000",,"Recognised","2016-05-04 00:00:00.0000000",
"RN5361","The Institute of the Motor Industry","The Institute of the Motor Industry","IMI","qualityandcompliance@theimi.org.uk","http://www.theimi.org.uk","Fanshaws","Brickendon","Hertford","Hertfordshire","SG13 8PQ","United Kingdom","01992 511 521","Recognised","2015-08-14 00:00:00.0000000",,"Recognised","2016-05-04 00:00:00.0000000",
"RN5237","The London Institute of Banking & Finance","The London Institute of Banking & Finance","LIBF","customerservices@libf.ac.uk ","http://www.libf.ac.uk","8th Floor Peninsular House","36 Monument Street","London"," ","EC3R 8LJ","United Kingdom","01227 818609","Surrendered","2010-04-01 00:00:00.0000000","2023-03-31 00:00:00.0000000","Surrendered","2016-05-04 00:00:00.0000000","2023-03-31 00:00:00.0000000"
"RN5268","Associated Board of the Royal Schools of Music","The Associated Board of the Royal Schools of Music","ABRSM","abrsm@abrsm.ac.uk","http://www.abrsm.org","4 London Wall Place","London",,,"EC2Y 5AU","United Kingdom","0207 636 5400","Recognised","2010-04-01 00:00:00.0000000",,"Recognised","2016-05-04 00:00:00.0000000",
"RN5227","Chartered Institute of Procurement and Supply","The Chartered Institute of Procurement and Supply","CIPS","chantal.rogers@cips.org","http://www.cips.org","Easton House","Easton on the Hill","Stamford","Lincolnshire","PE9 3NZ","United Kingdom","01780 756777","Recognised","2010-04-01 00:00:00.0000000",,"Recognised","2016-05-04 00:00:00.0000000",
"RN5346","International Dance Teachers Association","International Dance Teachers' Association Limited","IDTA","info@idta.co.uk","http://www.idta.co.uk","76 Bennett Road","Brighton","East Sussex",,"BN2 5JL","United Kingdom","01273 685652","Recognised","2011-06-23 00:00:00.0000000",,"Recognised","2016-05-04 00:00:00.0000000",
"RN5117","Institute of Workplace and Facilities Management","Institute of Workplace and Facilities Management","IWFM","qualifications@iwfm.org.uk","http://www.iwfm.org.uk","Suite 15, Thremhall Park","Start Hill","Bishop's Stortford","Hertfordshire","CM22 7WE","United Kingdom","01279 712620","Recognised","2010-04-01 00:00:00.0000000",,"Surrendered","2016-05-04 00:00:00.0000000","2019-03-20 00:00:00.0000000"
"RN5293","DSA Qualification Awarding Board","DSA Qualifications Awarding Body Limited","DSAQ","joe.quilter@psp-group.co.uk","www.psp-group.co.uk","Hampden House","Monument Business Park","Chalgrove","Oxon","OX44 7RW","United Kingdom","01865 893220","Surrendered","2010-08-31 00:00:00.0000000","2014-04-01 00:00:00.0000000","Never been recognised",,
"RN6071","Best Practice Network","Best Practice Network Limited","BPN","joannahawkins@bestpracticenet.co.uk","www.bestpracticenet.co.uk","Best Practice Network","3rd Floor, Newminster House","27-29 Baldwin Street","Bristol","BS1 1LT","United Kingdom","01179209421","Recognised","2022-03-11 00:00:00.0000000",,"Never been recognised",,
"RN6083","JMA Contract Services Ltd","JMA Contract Services Ltd","JMA Contract Services Ltd","michael.allan@jmacontractservices.com","www.jmacontractservices.com","The Bailey ","Cumberland Road","North Shields","Tyne & Wear","NE29 8RD","United Kingdom","0191 2591690","Recognised","2022-05-24 00:00:00.0000000",,"Never been recognised",,
"RN6085","NSAN","National Skills Academy Nuclear","NSAN","enquiries@nsan.co.uk","nsan.co.uk","The Base","Dallam Lane",,"Warrington","WA2 7NG","United Kingdom","01925 909 700","Recognised","2022-05-31 00:00:00.0000000",,"Never been recognised",,
"RN5185","Cambridge English","University of Cambridge (The Chancellor, Masters and Scholars of the University of Cambridge)","Cambridge English","policy@cambridgeenglish.org","http://www.cambridgeenglish.org","Cambridge English","The Triangle Building","Shaftesbury Avenue","Cambridge","CB2 8EA","United Kingdom","01223 558888","Recognised","2010-04-01 00:00:00.0000000",,"Recognised","2016-05-04 00:00:00.0000000",
"XX1303","Offshore Petroleum Industry NTO","Offshore Petroleum Industry NTO","OPITO","","http://www.ofqual.gov.uk/",,,,,,,,"Withdrawn","2010-10-28 00:00:00.0000000","2010-10-28 00:00:00.0000000","Never been recognised",,
"RN6053","BPS Assessments and Awards Limited","BPS Assessments and Awards Limited","BPSAA EPA","epa@bps.org.uk","https://www.bps.org.uk/","St Andrews House,","48 Princess Road East",,"Leicester","LE1 7DR","United Kingdom","0116 254 9568","Recognised","2021-11-29 00:00:00.0000000",,"Never been recognised",,
"RN6051","The Chartered Institution of Building Services Engineers","The Chartered Institution of Building Services Engineers","CIBSE","lwebb@cibse.org","www.cibse.org","222 Balham High Road",,,"London","SW12 9BS","United Kingdom","020 8772 3601","Recognised","2021-11-25 00:00:00.0000000",,"Never been recognised",,
"RN6000","SafeCert Awards","SafeCert Awards Ltd","SafeCert","Paul@safecertawards.com","http://www.safecertawards.com","38 Main Street","Gortin",,,"BT79 8PH","United Kingdom","0845 500 2 100","Never been recognised",,,"Recognised","2016-05-25 00:00:00.0000000",
"RN5142","Chartered Institute of Legal Executives","The Chartered Institute of Legal Executives","CILEx","amanda.pipe@cilex.org.uk","http://www.cilex.org.uk","Kempston Manor","Kempston ","Bedford","Bedfordshire","MK42 7AB","United Kingdom","01234 841000","Recognised","2010-04-01 00:00:00.0000000",,"Recognised","2016-05-04 00:00:00.0000000",
"RN6030","South West Councils","South West Councils","SWC","fay.edwards@swcouncils.gov.uk","www.swcouncils.gov.uk","Dennett House","11 Middle Street",,"Taunton","TA1 1SH","United Kingdom","01823270101","Recognised","2021-03-17 00:00:00.0000000",,"Never been recognised",,
"RN6049","MILITARY INDEPENDENT ASSESSMENT AUTHORITY (ROYAL NAVY)","ROYAL NAVY APPRENTICESHIPS","MIAA (RN)","navypeople-trg-rn-miaa@mod.gov.uk","https://www.royalnavy.mod.uk/careers/levels-of-entry/apprenticeships","MIAA - F-09 RAMSAY BUILDING","HMS COLLINGWOOD","NEWGATE LANE","FAREHAM","PO14 1AS","United Kingdom","07921615022","Recognised","2021-11-25 00:00:00.0000000",,"Never been recognised",,
"RN6101","The Army Catering Training Trust","The Army Catering Training Trust","ACTT","qac@theactt.co.uk","www.theactt.co.uk","The Army Catering Training Trust","CPD Centre, Food Services Training Wing","Alexis Soyer House","Worthy Down","SO21 2RG","United Kingdom","07920006037","Recognised","2022-11-28 00:00:00.0000000",,"Never been recognised",,
"RN6063","Summit Qualifications UK","The British Institute of Recruiters","Summit Qualifications UK","contact@summitqualifications.co.uk","https://summitqualifications.co.uk/","Suite 3, First Floor, Parkway 2","Princess Road",,"Manchester","M14 7LU","United Kingdom","0161 232 0991","Recognised","2022-01-20 00:00:00.0000000",,"Never been recognised",,
"RN6093","Quantum Awards Limited","Quantum Awards Limited","QAL","mark.smith@quantum-awards.com","www.quantum-awards.com","Grafton House","Bull's Head Yard",,"Alcester","B49 5BX","United Kingdom","07447949209","Recognised","2022-08-02 00:00:00.0000000",,"Never been recognised",,
"RN6104","Assessu","Assessed Education Ltd","AEL","epa@assessu.co.uk","www.assessu.co.uk","4 Orchard Place","Nottingham Business Park",,"Nottingham","NG8 6PX","United Kingdom","0115 975 9550","Recognised","2022-12-23 00:00:00.0000000",,"Never been recognised",,
"RN5210","London Centre of Marketing","London Centre of Marketing Ltd","LCM","director@lcmuk.com","www.lcmuk.com","Buckingham House West",,"Stanmore","Greater London","HA74EB","United Kingdom","02083857766","Withdrawn","2010-04-01 00:00:00.0000000","2014-02-03 00:00:00.0000000","Never been recognised",,
"RN5295","Science, Engineering and Manufacturing Technologies Alliance","Science, Engineering and Manufacturing Technologies Alliance","SEMTA (SSC)","info@semta.co.uk","http://www.ofqual.gov.uk/","12 St. Peters Road","Peterborough","","","NW1 0JF","United Kingdom","0131 465 2892","Withdrawn","2010-10-20 00:00:00.0000000","2011-08-05 00:00:00.0000000","Never been recognised",,
"RN5189","Royal Academy of Dance","Royal Academy of Dance","RAD","exams@rad.org.uk","http://www.rad.org.uk","188 York Road",,,"London","SW11 3JZ","United Kingdom","020 7326 8000","Recognised","2010-04-01 00:00:00.0000000",,"Recognised","2016-05-04 00:00:00.0000000",
"RN5331","The Institute of Financial Accountants","The Institute of Financial Accountants","IFA","susand@ifa.org.uk","http://www.ifa.org.uk","27-31 Clerkenwell Close","Farringdon","London",,"EC1R 0AT","United Kingdom","020 3567 5836","Surrendered","2011-03-03 00:00:00.0000000","2019-11-27 00:00:00.0000000","Surrendered","2016-05-04 00:00:00.0000000","2016-06-12 00:00:00.0000000"
"RN5336","Central Qualifications","Central Veterinary Services Limited","CQ","enquiries@cqual.org","http://www.centralqualifications.org","Elmtree Business Park","Elmswell","Bury St Edmunds","Suffolk","IP30 9HR","United Kingdom","01359 245316","Recognised","2011-05-12 00:00:00.0000000",,"Surrendered","2016-05-04 00:00:00.0000000","2018-12-11 00:00:00.0000000"
"RN5219","Highfield Qualifications","Highfield Awarding Body for Compliance Limited","Highfield","info@highfieldabc.com","http://www.highfieldqualifications.com","Highfield ICON","First Point, Balby Carr Bank","Doncaster","South Yorkshire","DN4 5JQ","United Kingdom","01302363277","Recognised","2010-04-01 00:00:00.0000000",,"Recognised","2016-05-04 00:00:00.0000000",
"RN5249","Prince's Trust","The Prince's Trust","Prince's Trust","qualifications@princes-trust.org.uk","https://www.princes-trust.org.uk/about-the-trust/qualifications","The Prince’s Trust","8 Glade Path","London",,"SE1 8EG","United Kingdom","020 7543 1391","Recognised","2010-08-31 00:00:00.0000000",,"Recognised","2016-05-04 00:00:00.0000000",
"XX1333","Royal Institute of Public Health","Royal Institute of Public Health","RIPH","","http://www.ofqual.gov.uk/",,,,,,,,"Withdrawn","2010-10-28 00:00:00.0000000","2010-10-28 00:00:00.0000000","Never been recognised",,
"RN6066","Elite Awarding Limited ","Elite Awarding Limited ","Elite Awarding","paul@eliteawarding.co.uk","www.eliteawarding.co.uk"," Elite Awarding ","Sinclair Accounting Co Ltd, 300 St. Mary's Road","Garston","Liverpool","L19 0NQ ","United Kingdom","01512088034","Recognised","2022-02-23 00:00:00.0000000",,"Never been recognised",,
"RN6072","Steadfast Training Ltd","Steadfast Training Ltd","Steadfast EPA","di.pudney@steadfastepa.co.uk","www.steadfastepa.co.uk","5 Enterprise Way",,,"Spalding","PE11 3YR","United Kingdom","01775 513056","Recognised","2022-03-18 00:00:00.0000000",,"Never been recognised",,
"RN6116","The Society of Master Saddlers (UK) Ltd","The Society of Master Saddlers (UK) Ltd","SMS","ceo@mastersaddlers.co.uk","www.mastersaddlers.co.uk","Green Lane Farm","Stonham",,"STOWMARKET","IP14 5DS","United Kingdom","01449 711642","Recognised","2023-05-10 00:00:00.0000000",,"Never been recognised",,
"RN5191","Mountain Training England","Mountain Training England","MTE","cath@mountain-training.org","http://www.mountain-training.org","Siabod Cottage",,"Capel Curig","Conwy","LL24 0ES","United Kingdom","01690 720314","Recognised","2010-04-01 00:00:00.0000000",,"Surrendered","2016-05-04 00:00:00.0000000","2017-06-08 00:00:00.0000000"
"RN6100","Besafe Training Limited","Besafe Training Limited","Besafe Training Limited","chris.morton@besafe-training.co.uk","www.besafe-training.co.uk","Bizspace Ltd,",,"Design Works,","Gateshead","NE10 0JP","United Kingdom","07808761056","Recognised","2022-12-31 00:00:00.0000000",,"Never been recognised",,
"RN6086","IPP Education","IPP Education Ltd","IPPE","epa@ippeducation.co.uk","www.ippeducation.co.uk","Goldfinger House","245 Cranmore Boulevard","Shirley","Solihull","B90 4ZL","United Kingdom","0121 712 1000","Recognised","2022-06-01 00:00:00.0000000",,"Never been recognised",,
"RN5127","Chartered Institute of Marketing","Chartered Institute of Marketing","CIM","education@cim.co.uk","http://www.cim.co.uk","The Chartered Institute of Marketing","Moor Hall","Cookham","Berkshire","SL6 9QH","United Kingdom","01628 427500","Recognised","2010-04-01 00:00:00.0000000",,"Recognised","2016-05-04 00:00:00.0000000",
"RN5359","VetSkill","VetSkill Limited","VetSkill","admin@vetskill.com","http://www.vetskill.com","10 Ramsay Court","Hinchingbrooke Business Park",,"Huntingdon","PE29 6FY","United Kingdom","01480 278580","Recognised","2015-03-31 00:00:00.0000000",,"Recognised","2016-05-04 00:00:00.0000000",
"RN5360","Occupational Awards Limited","Occupational Awards Limited","OAL","info@oawards.co.uk","http://www.oawards.co.uk","The Catalyst","Baird Lane","Heslington","York","YO10 5GA","United Kingdom","01904 236 483","Recognised","2015-05-21 00:00:00.0000000",,"Surrendered","2016-05-04 00:00:00.0000000","2016-12-16 00:00:00.0000000"
"RN6096","A2A Training Ltd","A2A Training Limited ","A2A Training and EPA","Info@a2atraining.co.uk","https://www.a2atraining.co.uk/epa","13 Stourdale Road ","Cradley Heath ",,"Halesowen","B64 7BG","United Kingdom","01212945153","Recognised","2022-08-25 00:00:00.0000000",,"Never been recognised",,
"RN5248","Chartered Institute of Environmental Health","Chartered Institute of Environmental Health","CIEH","training@cieh.org","http://www.cieh.org/training","Chadwick Court","15 Hatfields","London","London","SE1 8DJ","United Kingdom","0207 827 5800","Surrendered","2010-04-01 00:00:00.0000000","2017-08-18 00:00:00.0000000","Surrendered","2016-05-04 00:00:00.0000000","2016-08-31 00:00:00.0000000"
"RN5141","Institute of British Sign Language","Institute of British Sign Language Community Interest Company","IBSL","michellejones@ibsl.org.uk","http://ibsl.org.uk","iBSL, Ground Floor, Office 8","Strawberry Fields Digital Hub","Euxton Lane","Chorley","PR7 1PS","United Kingdom","01257 221 326","Surrendered","2010-04-01 00:00:00.0000000","2023-04-18 00:00:00.0000000","Surrendered","2016-05-04 00:00:00.0000000","2023-04-18 00:00:00.0000000"
"RN5294","CITB-Construction Skills","CITB-Construction Skills","CITB-Construction Skills","","http://www.ofqual.gov.uk/","12 St. Peters Road","Peterborough","","","NW1 0JF","United Kingdom","0131 465 2892","Withdrawn","2010-10-20 00:00:00.0000000","2010-10-21 00:00:00.0000000","Never been recognised",,
"RN5246","Accounting Technicians Ireland","The Institute of Accounting Technicians in Ireland Limited","Accounting Technicians Ireland","info@AccountingTechniciansIreland.ie","http://www.accountingtechniciansireland.ie/","47-49 Pearse Street",,"Dublin",,"D2","Ireland","+353 (0) 1649 8100","Recognised","2010-04-01 00:00:00.0000000",,"Recognised","2016-05-04 00:00:00.0000000",
"RN5340","Logic Certification Limited","Logic Certification Limited","LCL Awards","enquiries@lclawards.co.uk","http://www.LCLawards.co.uk","Unit 1, Belvue Business Centre","Belvue Road","Northolt","Middlesex","UB5 5QQ","United Kingdom","020 8839 2439","Recognised","2011-05-12 00:00:00.0000000",,"Recognised","2016-05-04 00:00:00.0000000",
"RN6023","Rambert Creative Contemporary Dance Grades","RAMBERT CREATIVE CONTEMPORARY DANCE GRADES LTD ","Rambert Grades","libby.costello@rambertgrades.com","www.rambertgrades.com","Clifton Lodge","St Margarets Drive ","Twickenham ","London","TW1 1QN ","United Kingdom","02088929960","Recognised","2020-03-04 00:00:00.0000000",,"Never been recognised",,
"RN5150","The Institute of Tourist Guiding","The Institute of Tourist Guiding","ITG","office@itg.org.uk","www.itg.org.uk","307a Coppergate House","16 Brune Street","London",,"E1 7NJ","United Kingdom","020 7953 8397","Surrendered","2010-04-01 00:00:00.0000000","2013-12-05 00:00:00.0000000","Never been recognised",,
"RN5156","NCFE","NCFE","NCFE","compliance@ncfe.org.uk","http://www.ncfe.org.uk","Q6, Quorum Business Park","Benton Lane","Newcastle upon Tyne","Tyne and Wear","NE12 8BT","United Kingdom","0191 239 8000","Recognised","2010-04-01 00:00:00.0000000",,"Recognised","2016-05-04 00:00:00.0000000",
"RN5358","Crossfields Institute","Crossfields Institute","CFI","info@crossfieldsinstitute.com","http://www.crossfieldsinstitute.com","Stroud House","Russell Street","Stroud","Gloucestershire","GL5 3AN","United Kingdom","01453 808118","Recognised","2015-01-16 00:00:00.0000000",,"Surrendered","2016-05-04 00:00:00.0000000","2018-02-01 00:00:00.0000000"
"RN6025","Awarding UK (Part of Bishop Grosseteste University)","Bishop Grosseteste University","Awarding UK","robert.boast@bishopg.ac.uk","http://www.awardinguk.com","Longdales Road","Lincoln",,"Lincolnshire","LN1 3DY","United Kingdom","01522563839","Surrendered","2020-10-21 00:00:00.0000000","2022-07-15 00:00:00.0000000","Never been recognised",,
"RN5273","The Learning Machine","The Learning Machine Ltd","TLM","support@tlm.org.uk","http://www.tlm.org.uk","LMAT building","257a High Road","Loughton","Essex","IG10 1AD","United Kingdom","01827 305940","Recognised","2010-04-01 00:00:00.0000000",,"Surrendered","2016-05-04 00:00:00.0000000","2020-01-30 00:00:00.0000000"
"RN6002","telc – language tests","telc gGmbH","telc","info@telc.net","https://www.telc.net/language-exams-uk","Basler Strasse 7","Bad Homburg",,"am Main","61352","Germany","+49 (0)617238820 22","Recognised","2018-07-30 00:00:00.0000000",,"Never been recognised",,
"RN5344","ATHE Ltd","ATHE Ltd","ATHE","info@athe.co.uk","http://www.athe.co.uk","Suite 4B","Rosebery Court","St Andrew's Business Park","Norwich","NR7 0HS","United Kingdom","01603 760030 ","Recognised","2011-06-03 00:00:00.0000000",,"Surrendered","2016-05-04 00:00:00.0000000","2016-09-30 00:00:00.0000000"
"RN5171","WAMITAB","Waste Management Industry Training & Advisory Board","WAMITAB","info.admin@wamitab.org.uk","http://www.wamitab.org.uk/","Quadra","500 Pavillion Drive","Northampton Business Park","Northants","NN4 7YJ","United Kingdom","01604 231950","Surrendered","2010-04-01 00:00:00.0000000","2021-12-20 00:00:00.0000000","Surrendered","2016-05-04 00:00:00.0000000","2021-12-20 00:00:00.0000000"
"RN5242","The Gemmological Association of Great Britain","The Gemmological Association of Great Britain","Gem-A","info@gem-a.com","http://www.gem-a.com","21 Ely Place",,"London",,"EC1N 6TD","United Kingdom","+44 (0) 20 7404 3334","Recognised","2010-04-01 00:00:00.0000000",,"Surrendered",,"2016-04-18 00:00:00.0000000"
"RN5112","Skills and Education Group Awards","Skills and Education Group Awards","SEG Awards","enquiries@skillsedugroup.co.uk","http://www.skillsandeducationgroupawards.co.uk","Robins Wood House, Robins Wood Rd, ","Aspley","Nottingham","Notts","NG8 3NH","United Kingdom","0115 854 1630","Recognised","2010-04-01 00:00:00.0000000",,"Recognised","2016-05-04 00:00:00.0000000",
"RN5272","Association of British Dispensing Opticians","The Association of British Dispensing Opticians","ABDO","mchandler@abdo.org.uk","http://www.abdo.org.uk","The Old Dairy","Godmersham Park","Godmersham","Kent","CT4 7DT","United Kingdom","01227 732920","Recognised","2010-04-01 00:00:00.0000000",,"Never been recognised",,
"RN5164","Register of Play Inspectors International","Register of Play Inspectors International Limited","RPII","rpii@playinspectors.com","www.playinspectors.com","1b Bagshaw Close","Ryton on Dunsmore",,"Warwickshire","CV8 3EX","United Kingdom","02476 693787","Surrendered","2010-04-01 00:00:00.0000000","2014-10-31 00:00:00.0000000","Never been recognised",,
"RN6037","LifeSkills Solutions Ltd","Lifeskills Solutions Ltd","LifeSkills Solutions Ltd","emma.wilkinson@learnaliving.co.uk","info@learnaliving.co.uk","Ground Floor, Enterprise House","Bridge Street",,"Rotherham","S60 1QJ","United Kingdom","01709 828586","Withdrawn","2021-08-16 00:00:00.0000000","2023-03-30 00:00:00.0000000","Never been recognised",,
"RN6040","IOSH","Institution of Occupational Safety and Health","IOSH","csc@iosh.com","www.iosh.com","The Grange","Highfield Drive","Wigston","Leicestershire","LE18 1NN","United Kingdom","0116 2573100","Recognised","2021-09-20 00:00:00.0000000",,"Never been recognised",,
"RN6044","Notebook Assessment Services Ltd","Notebook Assessment Services Ltd","NAS","admin@notebook-epa.co.uk","www.notebook-epa.co.uk","Unit 1a, Sunrise Business Park","Higher Shaftesbury Rd",,"Blandford Forum ","DT11 8ST","United Kingdom","01258457091","Recognised","2021-12-30 00:00:00.0000000",,"Never been recognised",,
"RN5201","Accredited Skills for Industry","Accredited Skills for Industry","ASFI","info@asfi.org.uk","http://www.asfi.org.uk","Wisemore Campus","Littleton Street West","Walsall",,"WS2 8ES","United Kingdom","01922 657054","Surrendered","2010-04-01 00:00:00.0000000","2016-10-31 00:00:00.0000000","Never been recognised",,
"RN5183","Worshipful Company of Spectacle Makers","Worshipful Company of Spectacle Makers","WCSM","administrator@spectaclemakers.com","http://www.spectaclemakers.com","Apothecaries' Hall","Black Friars Lane",,"London","EC4V 6EL","United Kingdom","020 7236 2932","Surrendered","2010-04-01 00:00:00.0000000","2021-09-01 00:00:00.0000000","Surrendered","2016-05-04 00:00:00.0000000","2019-03-29 00:00:00.0000000"
"RN5186","Agored Cymru","Agored Cymru","Agored Cymru","enquiries@agored.cymru","http://www.agored.cymru","4  Llys Onnen","Parc Menai","Bangor","Gwynedd","LL57 4DF","United Kingdom","01248 670011","Recognised","2019-03-15 00:00:00.0000000",,"Never been recognised",,
"RN5132","Engineering Construction Industry Training Board","Engineering Construction Industry Training Board","ECITB","qualifications@ecitb.org.uk","http://www.ecitb.org.uk","Office F15, Kings House Business Centre","Home Park Estate","Station Road","Kings Langley","WD4 8LZ","United Kingdom","01923 260000","Recognised","2010-04-01 00:00:00.0000000",,"Surrendered","2016-05-04 00:00:00.0000000","2016-11-04 00:00:00.0000000"
"RN5277","ABMA Education Ltd","ABMA Education Ltd","ABMA","RITS@abma.uk.com","http://www.abma.uk.com","7 Queens Square","Lyndhurst Road","Ascot","Berkshire","SL5 9FE","United Kingdom","0208 733 7000","Recognised","2010-04-01 00:00:00.0000000",,"Never been recognised",,
"RN5275","British Institute of Cleaning Science","The British Institute of Cleaning Science Limited","BICSc","info@bics.org.uk","www.bics.org.uk","9 Premier Court, Boarden Close","Moulton Park","Northampton","Northamptonshire","NN3 6LF","United Kingdom","01604 678710","Surrendered","2010-04-01 00:00:00.0000000","2014-11-18 00:00:00.0000000","Never been recognised",,
"RN5264","Chartered Institute of Credit Management","Chartered Institute of Credit Management","CICM","awardingbody@cicm.com","http://www.cicm.com","1 Accent Park","Bakewell Road","Orton Southgate","Peterborough","PE2 6XS","United Kingdom","01780 722 900 ","Recognised","2010-04-01 00:00:00.0000000",,"Recognised","2016-05-04 00:00:00.0000000",
"RN6075","Explosive Learning Solutions (ELS) Ltd","Explosive Learning Solutions","ELS","epaenquiries@explosivelearningsolutions.com","elsbusinesstraining.co.uk","Unit 4, Library Avenue","The Terraces","Harwell Science and Innovation Campus","Didcot","OX110SG","United Kingdom","01235861805","Recognised","2022-03-31 00:00:00.0000000",,"Never been recognised",,
"RN6065","SIAS","Science Industry Assessment Service Limited","SIAS","info@siasuk.com","www.siasuk.com","1st Floor, 720 Mandarin Court",,"Centre Park","Warrington","WA1 1GG","United Kingdom","01925 515 211","Recognised","2022-01-31 00:00:00.0000000",,"Never been recognised",,
"RN5328","Gateway Qualifications Limited","Gateway Qualifications Limited","Gateway Qualifications","enquiries@gatewayqualifications.org.uk","http://www.gatewayqualifications.org.uk","Gateway House","6 Tollgate Business Park","COLCHESTER","Essex","CO3 8AB","United Kingdom","01206 911211","Recognised","2011-02-01 00:00:00.0000000",,"Surrendered","2016-05-04 00:00:00.0000000","2018-08-30 00:00:00.0000000"
"RN6056","Institute of Cast Metals Engineers","Institute of Cast Metals Engineers","ICME","epainfo@icme.org.uk","https://www.icme.org.uk/","Ecms","National Foundry Training Centre","Tipton Rd","Tipton","DY4 7UW","United Kingdom","0121 752 1810","Recognised","2021-12-30 00:00:00.0000000",,"Never been recognised",,
"RN5289","Open Awards","Open Awards","Open Awards","info@openawards.org.uk","http://www.openawards.org.uk","17 DeHavilland Drive","Estuary Commerce Park","Speke","Liverpool","L24 8RN","United Kingdom","0151 494 2072","Recognised","2010-09-29 00:00:00.0000000",,"Surrendered","2016-05-04 00:00:00.0000000","2017-01-31 00:00:00.0000000"
"RN6061","Advance HE","Advance HE","Advance HE","endpointassessment@advance-he.ac.uk","https://www.advance-he.ac.uk/","Innovation Way","York Science Park","Heslington","York","YO10 5BR","United Kingdom","01904 717500","Recognised","2021-12-30 00:00:00.0000000",,"Never been recognised",,
"RN6122","United Centre of Excellence Limited","United Centre of Excellence Limited","UCE","Alan.bates@uce.org.uk","https://www.uce.org.uk/","19","St Christophers Way,","Pride Park,","Derby","DE24 8JY","United Kingdom","01332 417755","Recognised","2023-08-23 00:00:00.0000000",,"Never been recognised",,
"RN5211","Worshipful Company of Farriers","Farriery Examinations Limited","WCF","master@wcf.org.uk","http://www.wcf.org.uk","The Worshipful Company of Farriers","Magnesia House","6 Playhouse Yard","London","EC4V 5EX","United Kingdom","02034100720","Recognised","2010-04-01 00:00:00.0000000",,"Never been recognised",,
"RN6006","DSW Consulting","Doran Scott Williams and Co Ltd","DSW","dp@dsw.uk.net","https://www.dswconsulting.co.uk/","DSW House, Unit 3","Hayfield Business Park, Field Lane","Auckley","Doncaster","DN9 3FL","United Kingdom","01302 760008","Recognised","2018-12-10 00:00:00.0000000",,"Never been recognised",,
"RN6094","British Allied Trades Federation","British Allied Trades Federation","BATF","enquiries@batf.uk.com","www.batf.uk.com","Federation House","10, Vyse Street",,"Birmingham","B18 6LT","United Kingdom","0121 2362657","Recognised","2022-08-09 00:00:00.0000000",,"Never been recognised",,
"RN6103","Chartered Institution of Railway Operators","Chartered Institution of Railway Operators","CIRO","fiona@railwayoperators.co.uk","www.ciro.org","Beacon Building 2nd Floor, ","Stafford Enterprise Park West, ","Weston Rd, ","Stafford, ","ST18 0BF","United Kingdom","07989 436546","Recognised","2022-12-31 00:00:00.0000000",,"Never been recognised",,
"RN5349","FPSB UK Ltd","FPSB UK Ltd","FPSB UK","lucy@financialplanning.org.uk","www.financialplanning.org.uk","One Redcliff Street",,"Bristol",,"BS1 6NP","United Kingdom","0844 8733325","Surrendered","2011-08-15 00:00:00.0000000","2015-11-17 00:00:00.0000000","Never been recognised",,
"RN6124","The British Institute of Non-Destructive Testing","The British Institute of Non-Destructive Testing","BINDT","info@bindt.org","www.bindt.org","Midsummer House","Riverside Way","Bedford Road","Northampton","NN1 5NX","United Kingdom","01604 438300","Recognised","2023-09-25 00:00:00.0000000",,"Never been recognised",,
"RN5221","ABE","ABE Global Ltd","ABE","info@abeuk.com","http://www.abeuk.com","New Malden Business Centre","46/50 Coombe Road","New Malden","Surrey","KT3 4QF","United Kingdom","0208 329 2930","Recognised","2010-04-01 00:00:00.0000000",,"Surrendered","2016-05-04 00:00:00.0000000","2019-09-23 00:00:00.0000000"
"RN5318","IMI Awards Ltd","IMI Awards Ltd","IMIAL","qualsdevelopment@theimi.org.uk","www.imiawards.org.uk","'Fanshaws'","Brickendon","Hertford","Hertfordshire","SG13 8PQ","United Kingdom","01992 511521","Surrendered","2010-10-21 00:00:00.0000000","2016-02-25 00:00:00.0000000","Never been recognised",,
"RN6097","NHS England National School of Healthcare Science","NHS England","NHS England NSHCS","nshcsepa@hee.nhs.uk","https://nshcs.hee.nhs.uk/","23 Stephenson Street",,,"Birmingham ","B2 4HQ","United Kingdom","01216952529","Recognised","2022-09-27 00:00:00.0000000",,"Never been recognised",,
"RN5269","British Horseracing Education and Standards Trust","British Horseracing Education and Standards Trust","BHEST","info@bhest.co.uk","www.bhest.co.uk","Suite 16, Unit 8, Kings Court","Willie Snaith Road","Newmarket","Suffolk","CB8 7SG","United Kingdom","01638 560743","Surrendered","2010-04-01 00:00:00.0000000","2015-02-02 00:00:00.0000000","Never been recognised",,
"RN5130","Chartered Quality Institute","The Chartered Quality Institute","CQI","education@quality.org","http://quality.org","2nd Floor North, Chancery Exchange","10 Furnival Street","London",".","EC4A 1AB","United Kingdom","020 7245 6722","Surrendered","2010-04-01 00:00:00.0000000","2021-12-14 00:00:00.0000000","Surrendered","2016-05-04 00:00:00.0000000","2016-09-19 00:00:00.0000000"
"RN5205","Open University Awarding Body","Open University","OU","cicp-recep@open.ac.uk","open.ac.uk","The Open University","Walton Hall","Milton Keynes","Buckinghamshire","MK7 6AA","United Kingdom","01908 332870","Surrendered","2010-04-01 00:00:00.0000000","2015-04-24 00:00:00.0000000","Never been recognised",,
"RN5247","Chartered Institute for Securities & Investment","Chartered Institute for Securities & Investment","CISI","customersupport@cisi.org","http://www.cisi.org","20 Fenchurch Street",,"London",,"EC3M 3BY","United Kingdom","+44(0)2076450600","Recognised","2010-04-01 00:00:00.0000000",,"Recognised","2016-05-04 00:00:00.0000000",
"RN5167","Scottish Qualifications Authority trading as SQA","Scottish Qualifications Authority","SQA","compliance@sqa.org.uk","http://www.sqa.org.uk","The Optima Building","58 Robertson Street","Glasgow",,"G2 8DQ","United Kingdom","0845 279 1000","Recognised","2010-04-01 00:00:00.0000000",,"Surrendered","2016-05-04 00:00:00.0000000","2017-02-27 00:00:00.0000000"
"RN5182","Chartered Institute of Building and Chartered Institute of Housing Joint Awarding Body","Chartered Institute of Building and Chartered Institute of Housing Joint Awarding Body","CIOB - CIH","roger.keller@cih.org","www.cih.org","Octavia House ","Westwood Way","Coventry","West Midlands","CV4 8JP","United Kingdom","024 7685 1700","Withdrawn","2010-04-01 00:00:00.0000000","2011-05-16 00:00:00.0000000","Never been recognised",,
"RN6010","Extractives and Mineral Processing Industries Awards","Philip Brain Associates Limited","EMPI Awards","info@empiawards.co.uk","https://www.empiawards.co.uk","Swallows Rest","Pendalog","Llanfyllin","Powys","SY22 5ET","United Kingdom","01691 649078","Recognised","2019-03-01 00:00:00.0000000",,"Never been recognised",,
"RN5133","Pearson Education Ltd","Pearson Education Ltd","Pearson","examsofficers@pearson.com","http://qualifications.pearson.com","80 Strand",,,"London","WC2R 0RL","United Kingdom","0345 618 0440","Recognised","2010-04-01 00:00:00.0000000",,"Recognised","2010-04-01 00:00:00.0000000",
"RN5137","GQA Qualifications Limited","GQA Qualifications Limited","GQA","info@gqaqualifications.com","http://www.gqaqualifications.com","Unit 1 Twelve O'clock Court","Attercliffe Road","Sheffield","South Yorkshire","S4 7WW","United Kingdom","0114 2720033","Recognised","2010-04-01 00:00:00.0000000",,"Recognised","2016-05-04 00:00:00.0000000",
"RN5241","AQA - City & Guilds","The City and Guilds of London Institute","AQA - City & Guilds","regulation@cityandguilds.com","http://www.diplomainfo.org.uk","1 Giltspur Street",,"London",,"EC1A 9DD","United Kingdom","0207 294 2468","Surrendered","2010-04-01 00:00:00.0000000","2014-09-01 00:00:00.0000000","Never been recognised",,
"RN6054","CILIP Pathways","CILIP Pathways Limited","CILIP Pathways","epa@cilip.org.uk","https://www.cilip.org.uk/page/CILIPPathways","7 Ridgmount St",,,"London","WC1E 7AE","United Kingdom","0207 255 0500","Recognised","2021-12-30 00:00:00.0000000",,"Never been recognised",,
"RN5229","Chartered Institute of Building","The Chartered Institute of Building","CIOB","awardingorg@ciob.org.uk","http://www.ciob.org","3 Arlington Square","Downshire Way","Bracknell","Berkshire","RG12 1WA","United Kingdom","01344 630700","Recognised","2010-04-01 00:00:00.0000000",,"Recognised","2020-05-13 00:00:00.0000000",
"RN5228","City College Norwich Qualifications","City College Norwich Qualifications","CCNQ","qualifications@ccn.ac.uk","www.collegequalifications.org.uk","City College Norwich","Ipswich Road","Norwich","Norfolk","NR2 2LJ","United Kingdom","01603 773534","Surrendered","2010-06-16 00:00:00.0000000","2015-12-04 00:00:00.0000000","Never been recognised",,
"RN5153","The Market Research Society","The Market Research Society","MRS","info@mrs.org.uk","www.mrs.org.uk","15 Northburgh Street",,"London",,"EC1V 0JR","United Kingdom","020 7490 4911","Surrendered","2010-04-01 00:00:00.0000000","2013-02-01 00:00:00.0000000","Never been recognised",,
"RN5194","NOCN","NOCN","NOCN","nocn@nocn.org.uk","http://www.nocn.org.uk","Acero Building","1 Concourse Way","Sheaf Street","Sheffield","S1 2BJ","United Kingdom","0300 999 1177","Recognised","2010-04-01 00:00:00.0000000",,"Recognised","2016-05-04 00:00:00.0000000",
"RN5190","NEBOSH","National Examination Board in Occupational Safety and Health","NEBOSH","info@nebosh.org.uk","www.nebosh.org.uk","Dominus Way","Meridian Business Park","Leicester","Leics.","LE19 1QW","United Kingdom","01162634700","Surrendered","2010-04-01 00:00:00.0000000","2012-05-31 00:00:00.0000000","Never been recognised",,
"RN5122","Cambridge Assessment International Education","University of Cambridge (The Chancellor, Masters and Scholars of the University of Cambridge","Cambridge International","joe.thornton-beech@cambridge.org","https://www.cambridgeinternational.org/","The Triangle Building","Shaftesbury Road","Cambridge","Cambridgeshire","CB2 8EA","United Kingdom","01223 553554","Recognised","2010-04-01 00:00:00.0000000",,"Surrendered","2016-05-04 00:00:00.0000000","2016-06-01 00:00:00.0000000"
"RN5226","Chartered Institute of Personnel and Development","Chartered Institute of Personnel and Development","CIPD","qa@cipd.co.uk","http://www.cipd.co.uk","CIPD","151 The Broadway",,"London","SW19 1JQ","United Kingdom","020 8612 6200","Recognised","2010-04-01 00:00:00.0000000",,"Recognised","2016-05-04 00:00:00.0000000",
"RN5287","Network Rail","Network Rail","Network Rail","claire.lloyd@networkrail.co.uk","www.networkrail.co.uk","Square One","2nd Floor Travis Street ","Manchester","Lancs","M1 2NY","United Kingdom","0161 880 3201","Surrendered","2010-04-01 00:00:00.0000000","2012-07-31 00:00:00.0000000","Never been recognised",,
"RN6107","Fashion and Retail Awards","FASHION AND RETAIL AWARDS LIMITED","FARA","info@fashionandretailawards.com","https://www.fashionandretailawards.com/","15 Gresse Street",,,"London","W1T 1QL","United Kingdom","020 3040 2882","Recognised","2023-01-27 00:00:00.0000000",,"Never been recognised",,
"RN6113","Newcross Healthcare Solutions","Newcross Healthcare Solutions Limited","NXEPA","epa@newcrosshealthcare.com","www.newcrosshealthcare.com","Waterside","Berry Pomeroy","Totnes","Devon","TQ9 6LH","United Kingdom","02382 480125","Recognised","2023-03-22 00:00:00.0000000",,"Never been recognised",,
"RN5338","Gatehouse Awards Ltd","Gatehouse Awards Ltd","GA","info@gatehouseawards.org","http://www.gatehouseawards.org","Unit 5G","Woodhead House","Woodhead Road","Birstall","WF19 9TD","United Kingdom","01924 609250","Recognised","2011-05-12 00:00:00.0000000",,"Surrendered","2016-05-04 00:00:00.0000000","2016-09-28 00:00:00.0000000"
"RN5115","British Ballet Organisation","British Ballet Organisation Limited","BBO","info@bbo.dance","https://bbo.dance","BBO","Unit A Ensign House.Battersea Reach, Juniper Drive","Wandsworth","London","SW18 1TA","United Kingdom","020 8748 1241 ","Recognised","2010-04-01 00:00:00.0000000",,"Surrendered","2016-05-04 00:00:00.0000000","2017-10-19 00:00:00.0000000"
"RN5124","Confederation of International Beauty Therapy and Cosmetology","CIBTAC Limited","CIBTAC","lesley.blair@babtac.com","http://www.cibtac.com","Unit 18C Ley Court","Barnwood","Gloucester","Gloucestershire","GL4 3RT","United Kingdom","0044 (0) 1452 623114","Recognised","2010-04-01 00:00:00.0000000",,"Surrendered","2016-05-04 00:00:00.0000000","2019-03-23 00:00:00.0000000"
"RN5163","Royal Horticultural Society","The Royal Horticultural Society","RHS","qualifications@rhs.org.uk","http://www.rhs.org.uk","RHS Garden ","Wisley","Woking ","Surrey ","GU23 6QB","United Kingdom","01483 224234","Recognised","2010-04-01 00:00:00.0000000",,"Recognised","2016-05-04 00:00:00.0000000",
"RN6032","SS Educational Services Ltd","SS Educational Services Ltd","SSES","contact@sseducationalservices.co.uk","www.sseducationalservices.co.uk","Castle Hill House","12 Castle Hill",,"Windsor","SL4 1PD","United Kingdom","01753 373 435","Recognised","2021-05-25 00:00:00.0000000",,"Never been recognised",,
"RN5301","National Plant Awards Limited","National Plant Awards Limited","NPAL","","http://www.ofqual.gov.uk/","12 St. Peters Road","Peterborough","","","NW1 0JF","United Kingdom","0131 465 2892","Withdrawn","2010-10-20 00:00:00.0000000","2010-10-21 00:00:00.0000000","Never been recognised",,
"RN5253","Constructing Excellence in Learning Limited","Constructing Excellence in Learning Limited","CELL","CELL@bregroup.com","http://cell.constructingexcellence.org.uk","Constructing Excellence in Learning Limited","c/o BRE, Bucknalls Lane","Watford","Hertfordshire","WD25 9NH","United Kingdom","0845 605 5556","Surrendered","2010-04-01 00:00:00.0000000","2019-03-07 00:00:00.0000000","Surrendered","2016-05-04 00:00:00.0000000","2018-11-28 00:00:00.0000000"
"RN6126","EPA 4 Health","Cords Education","E4H","michelle@epa4health.com","epa4health.co.uk","17 Moor Park Avenue",,," Preston","PR1 6AS","United Kingdom","07769258972","Recognised","2023-10-12 00:00:00.0000000",,"Never been recognised",,
"RN6004","NICEIC Certification","Certsure LLP","NICEIC","enquiries@certsure.com","http://www.niceic.com/","Warwick House","Houghton Hall Park","Houghton Regis","Dunstable","LU5 5ZX","United Kingdom","03330 156625","Recognised","2018-09-19 00:00:00.0000000",,"Never been recognised",,
"RN6034","FireQual","BAFE FireQual Ltd","FireQual","info@firequal.com","http://firequal.com/","FireQual Ltd, The Fire Service College","London Road",,"Moreton-in-Marsh","GL56 0RH","United Kingdom","01608 656130","Recognised","2023-10-23 00:00:00.0000000",,"Surrendered","2021-02-05 00:00:00.0000000","2023-09-22 00:00:00.0000000"
"RN5281","International Curriculum and Assessment Agency (Examinations)","ICAA (Examinations) Ltd","ICAAE","exams@icaa.com","www.icaa.com","ICAA Education Centre","52 East Street","Alresford","Hampshire","SO24 9EQ","United Kingdom","'01962 737500","Surrendered","2010-04-01 00:00:00.0000000","2015-11-13 00:00:00.0000000","Never been recognised",,
"RN6014","Bespoke Professional Development and Training Ltd","Bespoke Professional Development and Training Ltd","BePro","info@beprodevelopment.co.uk","https://www.beprodevelopment.co.uk/","Office 3, Navigation House","Ellerbeck Way","Stokesley Business Park, Stokesley","North Yorkshire","TS9 5JZ","United Kingdom","01642956970","Surrendered","2019-08-28 00:00:00.0000000","2020-10-16 00:00:00.0000000","Never been recognised",,
"RN6099","Advance Assessments","Advance Assessments Limited","AA","graham.meek@advanceassessments.co.uk","https://www.advanceassessments.co.uk/","1st Floor","5-6 Argyll Street",,"London","W1F 7TE","United Kingdom","07768685969","Recognised","2022-11-25 00:00:00.0000000",,"Never been recognised",,
"RN5326","Laser Learning Awards","Open College Network South East Region Ltd","LASER","v.stewart@laser-awards.org.uk","http://www.laser-awards.org.uk","Cobb House","2-4 Oyster Lane",,"Byfleet","KT14 7DU","United Kingdom","01932 569894","Recognised","2010-12-20 00:00:00.0000000",,"Surrendered","2016-05-04 00:00:00.0000000","2016-07-28 00:00:00.0000000"
"RN5158","Professional Association of Diving Instructors","Professional Association of Diving Instructors","PADI","general@padi.co.uk",,"Unit 7, St Philips Central","Albert Road","Bristol","Avon","BS2 0PD","United Kingdom","0117 300 7234","Surrendered","2010-04-01 00:00:00.0000000","2012-02-29 00:00:00.0000000","Never been recognised",,
"RN5347","National Inter Action Trust Awarding","National Inter Action Trust Awarding","NIAT Awarding","admin@niat.org.uk","www.edcc.org.uk","Studio D, Container City II","Trinity Buoy Wharf, 64 Orchard Road","London",,"E14 0JW","United Kingdom","020 3609 8650","Withdrawn","2011-08-15 00:00:00.0000000","2011-10-31 00:00:00.0000000","Never been recognised",,
"RN5212","University of the Arts London","University of the Arts London","UAL","r.anderson@arts.ac.uk","http://www.arts.ac.uk/awarding","University of the Arts London Awarding Body","272 High Holborn","London","London","WC1V 7EY","United Kingdom","0207 514 9853","Recognised","2010-04-01 00:00:00.0000000",,"Recognised","2016-05-04 00:00:00.0000000",
"RN5134","Pearson EDI","Pearson Education Ltd (EDI)","Pearson EDI","examsofficers@pearson.com","http://www.edexcel.com","One90 High Holborn",,"London",,"WC1V 7BH","United Kingdom","0844 463 2535","Surrendered","2010-04-01 00:00:00.0000000","2017-07-01 00:00:00.0000000","Never been recognised",,
"RN6120","The Engineering College","Maritime and Engineering College North West","TEC","k.cairns@theengineeringcollege.co.uk","www.theengineeringcollege.co.uk","Monks Ferry","Birkenhead",,"Wirral","CH41 5LH","United Kingdom","01516666593","Recognised","2023-08-10 00:00:00.0000000",,"Never been recognised",,
"RN6057","LIFT AND ESCALATOR INDUSTRY ASSOCIATION (EPA0269)","LIFT AND ESCALATOR INDUSTRY ASSOCIATION (EPA0269)","L.E.I.A. ","epa@leia.co.uk","www.leia.co.uk","Rotherwick House","3 Thomas More Street","St Katharine's & Wapping","London ","E1W 1YZ","United Kingdom","+447880316842","Recognised","2021-12-30 00:00:00.0000000",,"Never been recognised",,
"RN5136","Future (Awards and Qualifications) Ltd","Future (Awards and Qualifications) Ltd","FAQ","compliance@futurequals.com","http://www.futurequals.com","Future (Awards and Qualifications) Ltd","EMP House, Telford Way","Coalville ","Leicestershire","LE67 3HE","United Kingdom","01530 836662","Recognised","2010-04-01 00:00:00.0000000",,"Recognised","2016-05-04 00:00:00.0000000",
"RN5235","English Speaking Board (International) Ltd","English Speaking Board (International) Ltd","ESB","qualityassurance@esbuk.org","http://www.esbuk.org","9 Hattersley Court","Burscough Road","Ormskirk","Lancashire","L39 2AY","United Kingdom","01695 573 439","Recognised","2010-04-01 00:00:00.0000000",,"Recognised","2016-05-04 00:00:00.0000000",
"RN5255","Royal Society for Public Health","Royal Society for Public Health","RSPH","info@rsph.org.uk","http://www.rsph.org.uk","John Snow House","59 Mansell Street","London",,"E1 8AN","United Kingdom","020 7265 7300","Recognised","2010-04-01 00:00:00.0000000",,"Recognised","2016-05-04 00:00:00.0000000",
"RN5170","University of West London","The University of West London ","UWL","quality@uwl.ac.uk","https://www.uwl.ac.uk/","The University of West London","St Mary's Road","Ealing","London","W5 5RF","United Kingdom","020 8231 2364","Recognised","2010-04-01 00:00:00.0000000",,"Recognised","2016-05-04 00:00:00.0000000",
"RN5251","Awarding Body for the Built Environment","Awarding Body for the Built Environment Limited","ABBE","abbeenquiries@bcu.ac.uk","http://www.abbeqa.co.uk","ABBE, Birmingham City University","University House","15 Bartholomew Row","Birmingham","B5 5JU","United Kingdom","0121 331 5174","Recognised","2010-04-01 00:00:00.0000000",,"Surrendered","2016-05-04 00:00:00.0000000","2019-05-17 00:00:00.0000000"
"RN5113","Association of Chartered Certified Accountants","Association of Chartered Certified Accountants","ACCA","info@accaglobal.com","http://www.accaglobal.com","The Adelphi","1 - 11 John Adam Street","London",,"WC2N 6AU","United Kingdom","+44 (0)141 582 2000","Recognised","2010-04-01 00:00:00.0000000",,"Recognised","2016-05-04 00:00:00.0000000",
"RN5327","Open College Network Northern Ireland","Open College Network Northern Ireland","OCN NI","info@ocnni.org.uk","http://www.ocnni.org.uk","Sirius House","10 Heron Road, Sydenham Business Park","Belfast","Co. Antrim","BT3 9LE","United Kingdom","028 9046 3990","Recognised","2011-01-20 00:00:00.0000000",,"Recognised","2016-05-04 00:00:00.0000000",
"RN5341","Learning Resource Network","Learning Resource Network Limited","LRN","enquiries@lrnglobal.org","http://www.lrnglobal.org","Suite C, 7th Floor","Lambourne House","7 Western Road","Romford","RM1 3LD","United Kingdom","0203 793 3519","Recognised","2011-05-12 00:00:00.0000000",,"Surrendered","2016-05-04 00:00:00.0000000","2016-12-15 00:00:00.0000000"
"RN6039","The Institution of Engineering and Technology","The Institution of Engineering and Technology","The IET","sarahsinclair@theiet.org","https://www.theiet.org/","Futures Place","Kings Way",,"Stevenage","SG1 2UA","United Kingdom","01438 313 311","Recognised","2021-09-15 00:00:00.0000000",,"Never been recognised",,
"RN6073","Progress Minded","JGA Limited","PMA","enquiries@progressminded.co.uk","https://progressminded.co.uk","Innov8 Vocational Training Centre","Clifton Gardens","Uxbridge","Middlesex","UB10 OEZ","United Kingdom","020 3869 0245","Recognised","2022-03-23 00:00:00.0000000",,"Never been recognised",,
"RN5126","Chartered Insurance Institute","Chartered Insurance Institute","CII","customer.serv@cii.co.uk","http://www.cii.co.uk","3rd Floor, ","20 Fenchurch Street,",,"London","EC3M 3BY","United Kingdom","020 8989 8464","Recognised","2010-04-01 00:00:00.0000000",,"Recognised","2016-05-04 00:00:00.0000000",
"RN5296","Qualifications and Curriculum Authority","Qualifications and Curriculum Authority","QCA","","http://www.ofqual.gov.uk/","12 St. Peters Road","Peterborough","","","NW1 0JF","United Kingdom","0131 465 2892","Withdrawn","2010-10-20 00:00:00.0000000","2010-10-21 00:00:00.0000000","Never been recognised",,
"RN5155","NCC Education Limited","NCC Education Limited","NCC Education","info@nccedu.com","http://www.nccedu.com","2nd Floor Adamson House, The Towers, Towers Busine","Wilmslow Rd","East Didsbury","Manchester","M20 2YY","United Kingdom","0161 438 6200","Recognised","2010-04-01 00:00:00.0000000",,"Surrendered","2016-05-04 00:00:00.0000000","2020-03-19 00:00:00.0000000"
"RN6005","Manpower Services Limited","Manpower Services Limited","MPSUK","damian.whitham@manpowergroup.co.uk","https://www.manpowergroupsolutions.co.uk/","Capital Court","30 Windsor Street","Uxbridge","Middlesex","UB8 1AB","United Kingdom","01895 205200","Surrendered","2018-11-12 00:00:00.0000000","2022-08-18 00:00:00.0000000","Never been recognised",,
"RN6027","Dental Team Qualifications","Dental Team Qualifications Limited","DTQ","rich.cure@denteamqual.com","https://dentalteamqualifications.com","21 Waterloo Place","Warwick Street","Leamington Spa","Warwickshire","CV32 5LA","United Kingdom","01926883476","Recognised","2020-11-26 00:00:00.0000000",,"Never been recognised",,
"RN5345","Open College Network Yorkshire and Humber Region trading as Certa","Open College Network Yorkshire and Humber Region","Certa","info@certa.org.uk","http://www.certa.org.uk","Certa House","Lower Warrengate","Wakefield",,"WF1 1SA","United Kingdom","01924 434600","Surrendered","2011-06-03 00:00:00.0000000","2019-06-20 00:00:00.0000000","Surrendered","2016-05-04 00:00:00.0000000","2019-07-26 00:00:00.0000000"
"RN6121","FuturU","FuturU Limited","FuturU","claudia.luca@futuru.ai","futuru.ai","5th Floor ","48 Chancery Lane",,"London","WC2A 1FJ","United Kingdom","07512 300052","Recognised","2023-08-17 00:00:00.0000000",,"Never been recognised",,
"RN6059","Chartered Institute of Management Accountants ","Chartered Institute of Management Accountants ","CIMA","tracey.fabiyi@aicpa-cima.com","https://www.cimaglobal.com/","The Helicon  ","One South Place",,"London","EC2M 2RB","United Kingdom","+447961757643","Recognised","2021-12-30 00:00:00.0000000",,"Never been recognised",,
"RN5161","Royal College of Veterinary Surgeons","Royal College of Veterinary Surgeons","RCVS","admin@rcvs.org.uk","www.rcvs.org.uk","Belgravia House","61-64 Horseferry Road","London",,"SW1P 2AF","United Kingdom","02072222001","Surrendered","2010-04-01 00:00:00.0000000","2015-11-20 00:00:00.0000000","Never been recognised",,
"RN5252","Institute of Animal Technology","The Institute of Animal Technology","IAT","chairman@iat.org.uk","http://www.iat.org.uk","5 South Parade","Summertown","Oxford","Oxfordshire","OX2 7JL","United Kingdom","01925 632463","Recognised","2010-04-01 00:00:00.0000000",,"Never been recognised",,
"RN6001","LanguageCert","PeopleCert Qualifications Ltd","LanguageCert","Marios.molfetas@languagecert.org","http://www.languagecert.org","192 Sloane Street",,,"London","SW1X 9QX","United Kingdom","0207 736 2265","Recognised","2017-05-22 00:00:00.0000000",,"Never been recognised",,
"RN6016","The Institute of Commercial Management","The Institute of Commercial Management","ICM","theresa.barlow@icm.education","https://www.icm.education/","ICM House","Yeoman Road","Ringwood","Hampshire","BH24 3FA","United Kingdom","01202490555","Recognised","2019-09-05 00:00:00.0000000",,"Never been recognised",,
"RN5271","Flybe Awards","Flybe Awards","Flybe Awards","andrew.rosser@flybe.com","www.flybe.com","Hangar 21","Jack Walker House","Exeter","Devon","EX5 2HL","United Kingdom","01392 366669","Surrendered","2010-04-01 00:00:00.0000000","2012-05-31 00:00:00.0000000","Never been recognised",,
"RN5362","Royal Society for the Prevention of Accidents","Royal Society for the Prevention of Accidents","RoSPA","enquiries@rospa.com","http://www.rospa.com","RoSPA House","28 Calthorpe Road","Birmingham","West Midlands","B15 1RP","United Kingdom","0121 248 2000","Recognised","2015-11-03 00:00:00.0000000",,"Surrendered","2016-05-04 00:00:00.0000000","2017-03-07 00:00:00.0000000"
"RN6109","National Examining Board for Dental Nurses","National Examining Board for Dental Nurses","NEBDN","Kate.Kerslake@nebdn.org","www.nebdn.org","First Floor","Quayside Court","Chain Caul Way","Preston","PR2 2ZP","United Kingdom","01772 429917","Recognised","2023-01-31 00:00:00.0000000",,"Recognised","2023-12-11 00:00:00.0000000",
"RN5274","Institute of Export & International Trade","The Institute of Export & International Trade","IOE","qualifications@export.org.uk","https://www.export.org.uk","Export House","Minerva Business Park","Lynchwood","Peterborough","PE2 6FT","United Kingdom","01733 404400","Recognised","2010-04-01 00:00:00.0000000",,"Recognised","2022-07-07 00:00:00.0000000",
"RN5348","The APM Group Limited","APMG Group Limited","APMG-International","Nicola.Kelly@apmgroup.co.uk","wwww.apmg-international.com","Sword House","Totteridge Road","High Wycombe","Buckinghamshire","HP13 6DG","United Kingdom","01494 452450","Surrendered","2011-08-15 00:00:00.0000000","2014-01-29 00:00:00.0000000","Never been recognised",,
"RN6062","Intqual-pro Limited","Intqual-pro Limited","IQP","EPA@intqual-pro.com","www.intqual-pro.com","2 Appley Court",,,"Haynes","MK45 3QQ","United Kingdom","01234 381158","Recognised","2022-01-11 00:00:00.0000000",,"Never been recognised",,
"RN5192","RSL Awards Ltd","RSL Awards Ltd","RSL","info@rslawards.com","https://www.rslawards.com","RSL Awards Ltd","Harlequin House, 7 High Street","Teddington","Middlesex","TW11 8EE","United Kingdom","0845 4604747","Recognised","2010-04-01 00:00:00.0000000",,"Recognised","2016-05-04 00:00:00.0000000",
"RN6105","The London Institute of Banking & Finance","LIBF Limited","LIBF","customerservices@libf.ac.uk","www.libf.ac.uk","7th & 8th Floor Peninsular House","Monument Street",,"London","EC3R 8LJ","United Kingdom","01227 818609","Recognised","2023-01-10 00:00:00.0000000",,"Recognised","2023-01-10 00:00:00.0000000",
"RN5206","Institute of Accountants and Bookkeepers","Institute of Accountants and Bookkeepers","IAB","ao@iab.org.uk","http://www.iab.org.uk","110 Bishopsgate ",,,"London","EC2N 1AY","United Kingdom","0208 187 8888 ","Recognised","2010-04-01 00:00:00.0000000",,"Recognised","2016-05-04 00:00:00.0000000",
"RN5145","CIOL Qualifications","IoL Educational Trust","CIOLQ","ela.kwasny-spechko@ciol.org.uk","http://www.ciol.org.uk","Thanet House","231 - 232 Strand,",,"London","WC2R 1DA","United Kingdom","02079403100","Recognised","2010-04-01 00:00:00.0000000",,"Recognised","2016-05-04 00:00:00.0000000",
"RN5224","YMCA Awards","Central Young Men's Christian Association","YMCA","awards.support@ymca.co.uk","http://www.ymcaawards.co.uk","112 Great Russell Street",,"London",,"WC1B 3NQ","United Kingdom","+44 (0)20 3994 9500","Recognised","2010-04-01 00:00:00.0000000",,"Recognised","2016-05-04 00:00:00.0000000",
"RN6098","Marshall Assessment Limited","Marshall Assessment Limited","MA","robgreen@marshall-assessment.com","www.marshall-assessment.com","Alpha Works, ","Alpha Tower ","Suffolk Street Queensway, ","Birmingham","B1 1TT","United Kingdom","0121 516 4283","Recognised","2022-11-23 00:00:00.0000000",,"Never been recognised",,
"RN6011","Fire Risk Management Limited","Fire Risk Management Ltd","FRM","frmtraining@fireriskman.co.uk","http://fireriskman.co.uk/","42 The Spinney","Marlow Hill","High Wycombe","Bucks","HP11 1QE","United Kingdom","01494 532113","Surrendered","2019-05-15 00:00:00.0000000","2023-02-03 00:00:00.0000000","Never been recognised",,
"RN6077","Academy for Project Management LTD","Academy for Project Management LTD","Academy4PM","ceri.hartnell@academy4pm.com","www.academy4pm.com","Academy for Project Management","Churston House","3 Alfred Street","Neath","SA11 1EF","United Kingdom","01639 630001","Recognised","2022-04-25 00:00:00.0000000",,"Never been recognised",,
"RN5128","Chartered Management Institute","Chartered Management Institute","CMI","Ann.Francke@managers.org.uk","http://www.managers.org.uk","77 Kingsway",,"London",,"WC2B 6SR","United Kingdom","020 7421 2724","Recognised","2010-04-01 00:00:00.0000000",,"Recognised","2016-05-04 00:00:00.0000000",
"RN6003","Music Teachers' Board","MTB Exams Limited","MTB Exams","enquiries@mtbexams.com","https://www.mtbexams.com","Gable House","18-24 Turnham Green Terrace","Chiswick","London","W4 1QP","United Kingdom","0118 9680910","Recognised","2018-08-09 00:00:00.0000000",,"Never been recognised",,
"RN6095","RTITB","RTITB Limited","RTITB","epa@ritib.com","rtitb.com","Access House","Halesfield 17",,"Telford","TF7 4PW","United Kingdom","01952520200","Recognised","2022-08-09 00:00:00.0000000",,"Never been recognised",,
"RN5120","British Wheel of Yoga Qualifications","The British Wheel of Yoga Qualifications","BWYQ","bwyqcoordinator@gmail.com","http://www.bwyq.org.uk","25 Jermyn Street","Sleaford",,"Lincolnshire","NG34 7RU","United Kingdom","020 8390 9365","Recognised","2010-04-01 00:00:00.0000000",,"Surrendered","2016-05-04 00:00:00.0000000","2016-07-19 00:00:00.0000000"
"XX1307","ASET","ASET","ASET","","http://www.ofqual.gov.uk/",,,,,,,,"Withdrawn","2010-10-28 00:00:00.0000000","2010-10-28 00:00:00.0000000","Never been recognised",,
"RN6102","Institute of Conservation","Institute of Conservation","Icon","pwhife@icon.org.uk","www.icon.org.uk","106-109 Saffron Hill",,,"London","EC1N 8QS","United Kingdom","02031426799 ","Recognised","2022-12-06 00:00:00.0000000",,"Never been recognised",,
"RN5353","Focus Awards Limited","Focus Awards Limited","Focus Awards","info@focusawards.org.uk","http://www.focusawards.org.uk","Silicon House","Farfield Park","Manvers Rotherham","South Yorkshire","S63 5DB","United Kingdom","0333 3447 388","Recognised","2013-04-09 00:00:00.0000000",,"Recognised","2016-05-04 00:00:00.0000000",
"RN6012","Institute of Sales Professionals","The Professional Sales Leadership Alliance Ltd","ISP","eqa@the-isp.org","https://www.the-isp.org/","Institute of Sales Professionals","960 Capability Green","Luton","Bedfordshire","LU1 3PE","United Kingdom","02036374940","Recognised","2019-06-19 00:00:00.0000000",,"Never been recognised",,
"RN6048","Professional Assessment Ltd","Professional Assessment Ltd","PAL","info@professionalassessment.co.uk","https://professionalassessment.co.uk","Connect House","Kingston Road",,"Leatherhead","KT22 7LT","United Kingdom","0800 1601899","Recognised","2021-10-28 00:00:00.0000000",,"Never been recognised",,
"RN5230","Cskills Awards, part of the NOCN Group","NOCN","Cskills Awards","cskillsawards@nocn.org.uk","http://www.citb.co.uk/awards/","Cskills Awards","Building 43, Bircham Newton","Kings Lynn","Norfolk","PE31 6RH","United Kingdom","0300 999 1177","Surrendered","2010-04-01 00:00:00.0000000","2018-03-31 00:00:00.0000000","Surrendered","2016-05-04 00:00:00.0000000","2017-08-02 00:00:00.0000000"
"RN5223","CABWI Awarding Body","CABWI Awarding Body","CABWI","quals@cabwi.co.uk","http://www.cabwi.co.uk","6 Bevis Marks",,,"London","EC3A 7BA","United Kingdom","020 7469 2642","Recognised","2010-04-01 00:00:00.0000000",,"Recognised","2016-05-04 00:00:00.0000000",
"RN6031","Smart Awards Ltd ","Smart Awards Ltd","Smart Awards","Lesley@smartawards.co.uk","https://www.smartawards.co.uk/","Unit F8A, Holly Farm Business Park ","Honiley Road, Honiley ","Kenilworth ","Warwickshire ","CV8 1NP","United Kingdom","02476 421125","Recognised","2021-03-30 00:00:00.0000000",,"Never been recognised",,
"RN5196","AQA Education","AQA Education","AQA","mailbox@aqa.org.uk","http://www.aqa.org.uk","AQA","Stag Hill House","Guildford","Surrey","GU2 7XJ","United Kingdom","01483 506506","Recognised","2010-04-01 00:00:00.0000000",,"Recognised","2010-04-01 00:00:00.0000000",
"RN5157","NCTJ Training","NCTJ Training Limited","NCTJ","joanne.butcher@nctj.com","http://www.nctj.com","The New Granary","Station Road","Newport, Saffron Walden","Essex","CB11 3PL","United Kingdom","01799 544014","Recognised","2010-04-01 00:00:00.0000000",,"Recognised","2016-05-04 00:00:00.0000000",
"RN6114","DNA Skills","SCL Education & Training Limited","DNA Skills","enquiries@dnaskills.co.uk","www.dnaskills.co.uk","7 Lakeside Business Park","Swan Lane",,"Sandhurst","GU47 9DN","United Kingdom","07917203905","Recognised","2023-04-14 00:00:00.0000000",,"Never been recognised",,
"RN6060","Institute of Chartered Accountants of England and Wales","ICAEW","ICAEW","kirsten.denoven@icaew.com","www.icaew.com","ICAEW Chartered Accountants’ Hall  ","Moorgate Place ",,"London","EC2R 6EA","United Kingdom"," +44 (0)20 7920 8100","Recognised","2021-12-30 00:00:00.0000000",,"Never been recognised",,
"RN5236","First Aid Awards Ltd","First Aid Awards Ltd","FAA","enquiries@firstaidawards.com","http://www.firstaidawards.com","Awards House","10 Central Treviscoe","St Austell","Cornwall","PL26 7QW","United Kingdom","08458 333999","Recognised","2010-04-20 00:00:00.0000000",,"Surrendered","2016-05-04 00:00:00.0000000","2018-04-20 00:00:00.0000000"
"RN6068","International Compliance Association","International Compliance Association","ICA","epa@int-comp.org","https://www.int-comp.org/helping-your-organisation/end-point-assessment-england/","5th Floor","10 Whitechapel High Street",,"London","E1 8QS","United Kingdom","+44 (0) 121 362 7503","Recognised","2022-03-08 00:00:00.0000000",,"Never been recognised",,
"RN5160","Qualifi Ltd","Qualifi Ltd","QUALIFI","info@qualifi.net","http://www.qualifi.net","Synergy House","7 Acorn Business Park, Commercial Gate","Mansfield","Nottinghamshire","NG18 1EX","United Kingdom","0115 888 2323","Recognised","2010-04-01 00:00:00.0000000",,"Surrendered","2016-05-04 00:00:00.0000000","2019-07-23 00:00:00.0000000"
"RN6128","MN Awards Ltd","MN Awards Ltd","MNA","office@mnacademy.co.uk","www.mnawards.co.uk","Cromer Studios ","Holy Cross Chuch Crypt","98 Cromer Street","London","WC1H 8JU","United Kingdom","0207 052 4587","Recognised","2023-11-08 00:00:00.0000000",,"Never been recognised",,
"RN5181","Chartered Institute of Housing","The Chartered Institute of Housing","CIH","awarding.organisation@cih.org","http://www.cih.org","Suites 5 and 6 First Floor, Rowan House","Westwood Way","Coventry ","West Midlands","CV4 8LE","United Kingdom","024 7685 1700","Recognised","2010-04-01 00:00:00.0000000",,"Recognised","2016-05-04 00:00:00.0000000",
"RN5193","OCR","Oxford, Cambridge and RSA Examinations","OCR","general.qualifications@ocr.org.uk","http://www.ocr.org.uk","Cambridge Office","The Triangle Building","Shaftesbury Road","Cambridge","CB2 8EU","United Kingdom","01223 553998","Recognised","2010-04-01 00:00:00.0000000",,"Recognised","2010-04-01 00:00:00.0000000",
"RN6007","Transcend Awards","Transcend Awards Limited","Transcend","services@transcendawards.co.uk","https://www.transcendawards.co.uk","Transcend Awards Limited ","Robin Park Arena ","Robin Park ","Wigan","WN5 OUH","United Kingdom","0333 7722619","Recognised","2018-12-03 00:00:00.0000000",,"Never been recognised",,
"RN6042","International Association of Maritime Institutions ","International Association of Maritime Institutions ","IAMI","secretary@iami.org.uk","https://iami.info/","c/o Bilbeck Business Services Ltd","19 Janson Road ",,"Southampton","SO15 5FU","United Kingdom","01914474160","Recognised","2021-09-30 00:00:00.0000000",,"Never been recognised",,
"RN5254","Professional Lighting and Sound Association","Professional Lighting and Sound Association","PLASA","info@plasa.org",,"Redoubt House","1 Edward Road","Eastbourne","Sussex","BN23 8AS","United Kingdom","01323 524120","Withdrawn","2010-04-01 00:00:00.0000000","2011-08-18 00:00:00.0000000","Never been recognised",,
"RN5324","AptEd","AptEd, the trading name of Open College Network South West Region (OCNSWR) Ltd","AptEd","richard.spencer@apted.org.uk","www.apted.org.uk","7 Scott Building","Plymouth Science Park","Plymouth","Devon","PL6 8BX","United Kingdom","01752831500","Surrendered","2010-12-14 00:00:00.0000000","2015-11-17 00:00:00.0000000","Never been recognised",,
"RN6055","1st Awards Ltd","1st Awards Limited","1st Awards","tracey@1st-awards.co.uk","www.1st-awards.co.uk","Twin Acres","Hulme Hall Lane","Allostock","Knutsford","WA16 9JN","United Kingdom","07801702378","Recognised","2021-12-09 00:00:00.0000000",,"Never been recognised",,
"RN5147","Imperial Society of Teachers of Dancing","The Imperial Society of Teachers of Dancing","ISTD","CSQA@istd.org","http://www.istd.org/","22/26 Paul Street",,,"London","EC2A 4QE","United Kingdom","+44 (0)20 7377 1577","Recognised","2010-04-01 00:00:00.0000000",,"Recognised","2016-05-04 00:00:00.0000000",
"RN5267","The University of Central Lancashire Examination Board","UCLan Business Services Ltd","UCLanEB","CHunt5@uclan.ac.uk","www.uclanexams.org","School of Languages and International Studies","University of Central Lancashire","Preston","Lancashire","PR1 2HE","United Kingdom","01772 893672","Surrendered","2010-04-01 00:00:00.0000000","2014-01-02 00:00:00.0000000","Never been recognised",,
"RN5151","LAMDA","LAMDA Limited","LAMDA","exams@lamda.ac.uk","http://www.lamda.ac.uk","155 Talgarth Road","Hammersmith",,"London","W14 9DA","United Kingdom","(0)20 8834 0530","Recognised","2010-04-01 00:00:00.0000000",,"Recognised","2016-05-04 00:00:00.0000000",
"RN6127","Chief Assessments Limited","Chief Assessments Limited","CAL","sh@chiefassessments.co.uk","www.chiefassessments.co.uk","Hollyhouse","3 LAWN ROAD",,"Doncaster","DN1 2JF","United Kingdom","+447966155786","Recognised","2023-10-31 00:00:00.0000000",,"Never been recognised",,
"RN5299","Training and Development Agency for Schools (not an awarding body)","Training and Development Agency for Schools (not an awarding body)","TDA","","http://www.ofqual.gov.uk/","12 St. Peters Road","Peterborough","","","NW1 0JF","United Kingdom","0131 465 2892","Withdrawn","2010-10-20 00:00:00.0000000","2010-10-21 00:00:00.0000000","Never been recognised",,
"RN5300","Childrens Workforce Development Council (note: not an awarding body)","Childrens Workforce Development Council (note: not an awarding body)","CWDC","","http://www.ofqual.gov.uk/","12 St. Peters Road","Peterborough","","","NW1 0JF","United Kingdom","0131 465 2892","Withdrawn","2010-10-20 00:00:00.0000000","2011-10-18 00:00:00.0000000","Never been recognised",,
"RN5146","Institute of Sales Management","ISM Education Limited","ISM","tim.arnold@ismeducation.co.uk","http://www.ismeducation.co.uk","Amba House","Lincoln Suite","15 College Road","Harrow","HA1 1BA","United Kingdom","07956 265072","Recognised","2010-04-01 00:00:00.0000000",,"Surrendered","2016-05-04 00:00:00.0000000","2017-11-06 00:00:00.0000000"
"RN5123","Council for the Curriculum, Examinations and Assessment","Council for the Curriculum, Examinations and Assessment","CCEA","info@ccea.org.uk","http://www.ccea.org.uk","29 Clarendon Dock","Clarendon Dock","Belfast",,"BT1 3BG","United Kingdom","028 9026 1200","Recognised","2010-04-01 00:00:00.0000000",,"Recognised","2010-04-01 00:00:00.0000000",
"RN5280","The Institution of Fire Engineers","The Institution of Fire Engineers","IFE","vicki.ball@ife.org.uk","http://www.ife.org.uk","The Institution of Fire Engineers","64-66 Cygnet Court, Timothy's Bridge Road","Stratford upon Avon","Warwickshire","CV37 9NW","United Kingdom","01789  261463","Recognised","2010-04-01 00:00:00.0000000",,"Surrendered","2016-05-04 00:00:00.0000000","2019-10-02 00:00:00.0000000"
"RN6026","Achieve and Partners Limited","Achieve and Partners Limited","Achieve+Partners","info@achievepartners.co.uk","achievepartners.co.uk","2 Clifton Moor Business Village","James Nicholson Link",,"York","YO30 4XG","United Kingdom","07368286151","Recognised","2020-11-10 00:00:00.0000000",,"Never been recognised",,
"RN5213","The Pensions Management Institute","The Pensions Management Institute","PMI","KHoodless@pensions-pmi.org.uk","http://www.pensions-pmi.org.uk","6th Floor","9 Appold Street","London","England","EC2A 2AP","United Kingdom","0207 392 7405","Recognised","2010-04-01 00:00:00.0000000",,"Surrendered","2016-05-04 00:00:00.0000000","2019-03-08 00:00:00.0000000"
"RN6078","Xact Assessment","Xact Training Ltd","Xact Assessment","info@xact-assessment.org.uk","https://www.xact-assessment.org.uk/","3 Abbey Lane Court",,,"Evesham","WR11 4BY","United Kingdom","01386277980","Recognised","2022-04-25 00:00:00.0000000",,"Never been recognised",,
"RN6008","SSid Awarding","Certass Limited","SSid","support@ssidawarding.co.uk","https://www.ssidawarding.co.uk","Certass Limited","4 Forbes Road","Ayr","Heathfield Industrial Estate","KA8 9FG","United Kingdom","01292292099","Recognised","2019-01-10 00:00:00.0000000",,"Never been recognised",,
"RN6067","Vistar Qualifications Limited","Vistar Qualifications Limited","Vistar","operations@vistarquals.com","www.vistarqualifications.com","Centaur House","Ancells Business Park","Ancells Road","Fleet","GU51 2UJ","United Kingdom","01252 761095","Withdrawn","2022-03-01 00:00:00.0000000","2023-08-31 00:00:00.0000000","Never been recognised",,
"RN5162","Recruitment & Employment Confederation","Recruitment & Employment Confederation","REC","simon.crask@rec.uk.com","http://www.rec.uk.com","20 Queen Elizabeth Street",,,"London","SE1 2LS","United Kingdom","020 7009 2100","Recognised","2010-04-01 00:00:00.0000000",,"Surrendered","2016-05-04 00:00:00.0000000","2019-09-26 00:00:00.0000000"
"RN5143","Institute of Leadership & Management","The Institute of Leadership & Management","ILM","customer@i-l-m.com","www.i-l-m.com","1 Giltspur Street",,"London",,"EC1A 9DD","United Kingdom","020 7294 2470","Surrendered","2010-04-01 00:00:00.0000000","2016-01-13 00:00:00.0000000","Never been recognised",,
"RN5220","Association of Accounting Technicians","The Association of Accounting Technicians","AAT","aat@aat.org.uk","http://www.aat.org.uk","30 Churchill Place","Canary Wharf",,"London","E14 5RE","United Kingdom","+44 (0)20 3735 2468","Recognised","2010-04-01 00:00:00.0000000",,"Recognised","2016-05-04 00:00:00.0000000",
"RN5121","Council for Awards in Care, Health and Education","Council for Awards in Care, Health and Education","CACHE","info@cache.org.uk","www.cache.org.uk","Apex House","81 Camp Road","St Albans","Herts","AL1 5GB","United Kingdom","0845 3472123","Surrendered","2010-04-01 00:00:00.0000000","2016-01-29 00:00:00.0000000","Never been recognised",,
"RN5292","Contaminated Land: Applications in Real Environments","Contaminated Land: Applications in Real Environments","CL:AIRE","enquiries@claire.co.uk","www.claire.co.uk","7th Floor","1 Great Cumberland Place","London",,"W1H 7AL","United Kingdom","0207 258 5321","Surrendered","2010-08-31 00:00:00.0000000","2012-04-30 00:00:00.0000000","Never been recognised",,
"RN6047","The Institution of Civil Engineers ","The Institution of Civil Engineers ","ICE","epa@ice.org.uk","www.ice.org.uk"," Institution of Civil Engineers","One Great George Street","Westminster, London ","London ","SW1P 3AA","United Kingdom"," 020 7665 2344  ","Recognised","2021-10-28 00:00:00.0000000",,"Never been recognised",,
"RN5152","Lantra Awards","Lantra","Lantra Awards","awards@lantra.co.uk","http://www.lantra.co.uk","Lantra House","Stoneleigh Park","Coventry","Warwickshire","CV8 2LG","United Kingdom","02476 419703","Recognised","2010-04-01 00:00:00.0000000",,"Surrendered","2016-05-04 00:00:00.0000000","2019-08-08 00:00:00.0000000"
"RN5356","Fire Industry Association Awarding Organisation","Fire Industry Association","FIA","ao@fia.uk.com","http://www.fiaao.com","Tudor House, Kingsway Business Park","Oldfield Road","Hampton","Middlesex","TW12 2HD","United Kingdom","020 3166 5002","Surrendered","2014-06-12 00:00:00.0000000","2022-04-01 00:00:00.0000000","Surrendered","2016-05-04 00:00:00.0000000","2022-04-01 00:00:00.0000000"
"RN5116","British Driving Society","The British Driving Society Limited","BDS","justin.cowles@britishdrivingsociety.co.uk","http://www.britishdrivingsociety.co.uk","British Driving Society","Hoste House","Whiting Street","Bury St Edmund","IP33 1NR","United Kingdom","01284 630591","Surrendered","2010-04-01 00:00:00.0000000","2019-06-28 00:00:00.0000000","Surrendered","2016-05-04 00:00:00.0000000","2019-06-28 00:00:00.0000000"
"RN6036","CIWM","Chartered Institution of Wastes Management","CIWM","katie.cockburn@wamitab.org.uk","www.ciwm.co.uk","CIWM, Quadra","500 Pavilion Drive","Northmpaton Business Park","Northampton","NN4 7YJ","United Kingdom","01604620426","Recognised","2021-08-10 00:00:00.0000000",,"Recognised","2021-08-12 00:00:00.0000000",
"RN5330","Industry Qualifications","Industry Qualifications Ltd","IQ","info@industryqualifications.org.uk","http://www.industryqualifications.org.uk","Grosvenor House","Suite 4.02","Central Park","Telford","TF2 9TW","United Kingdom","0195 2457452","Surrendered","2011-03-03 00:00:00.0000000","2020-03-06 00:00:00.0000000","Surrendered","2016-05-04 00:00:00.0000000","2020-04-06 00:00:00.0000000"
"RN5357","National Association of Teachers of Dancing","The National Association of Teachers of Dancing","NATD","info@natd.org.uk","http://www.natd.org.uk","National House","Turnfields","Thatcham","Berkshire","RG19 4PT","United Kingdom","01635 868888","Recognised","2015-01-07 00:00:00.0000000",,"Recognised","2016-05-04 00:00:00.0000000",
"RN6043","1st for EPA","1st for EPA Ltd","1st for EPA","helen@1stforepa.co.uk","www.1stforepa.co.uk","61 Cranbrook","Marton-in-Cleveland",,"Middlesbrough","TS8 9XH","United Kingdom","07929194873","Recognised","2021-09-30 00:00:00.0000000",,"Never been recognised",,
"RN6080","Advanced Analytics Solutions","Advanced Analytics Solutions LLP","AAS","michael.akers@advancedanalyticssolutions.co.uk","www.advancedanalyticssolutions.co.uk","71-75 Shelton Street",,,"London","WC2H 9JQ","United Kingdom","07986157649","Recognised","2022-05-12 00:00:00.0000000",,"Never been recognised",,
"RN5232","Defence Awarding Organisation","Defence Awarding Organisation (DAO)","DAO","defac-dao@mod.gov.uk","https://www.gov.uk/government/groups/defence-awarding-organisation","Defence Awarding Organisation (DAO)","Trenchard Building, Defence Academy of the United ","Shrivenham","Swindon","SN6 8LA","United Kingdom","07886324795","Recognised","2010-04-01 00:00:00.0000000",,"Never been recognised",,
"RN5200","Ascentis","Ascentis","Ascentis","internalqualityassurance@ascentis.co.uk","https://www.ascentis.co.uk/","Ascentis House, Lancaster Business Park","3 Mannin Way","Lancaster","Lancashire","LA1 3SW","United Kingdom","01524 845046","Recognised","2010-04-01 00:00:00.0000000",,"Recognised","2016-05-04 00:00:00.0000000",
"RN5238","Institute of Risk Standards & Qualifications","Moody's Analytics UK Limited","iRSQ","Marc.flynn@moodys.com","www.irsqinstitute.com","One Canada Square","Canary Wharf","London",,"E145FA","United Kingdom","0207 772 1000","Surrendered","2010-04-26 00:00:00.0000000","2013-11-29 00:00:00.0000000","Never been recognised",,
"RN6117","In2assessments","In2action","In2A","barry.kaufman-hill@in2assessments.co.uk","https://www.in2assessments.co.uk","1 Jubilee Street ","2nd Floor, ","Jubilee Street, ","Brighton,  ","BN1 1GE","United Kingdom","07825966702","Recognised","2023-05-31 00:00:00.0000000",,"Never been recognised",,
"RN5217","City and Guilds of London Institute","City and Guilds of London Institute","City & Guilds","learnersupport@cityandguilds.com","http://www.cityandguilds.com","City & Guilds","Giltspur House","5-6 Giltspur Street","London","EC1A 9DE","United Kingdom","0207 294 2468","Recognised","2010-04-01 00:00:00.0000000",,"Recognised","2016-05-04 00:00:00.0000000",
"RN5165","Skillsfirst Awards Ltd","Skillsfirst Awards Ltd","Skillsfirst","customerservices@skillsfirst.co.uk","http://www.skillsfirst.co.uk","Suite 416","Fort Dunlop, Fort Parkway","Birmingham","West Midlands","B24 9FD","United Kingdom","0121 270 5100","Surrendered","2010-04-01 00:00:00.0000000","2023-01-31 00:00:00.0000000","Surrendered","2016-05-04 00:00:00.0000000","2017-02-06 00:00:00.0000000"
"RN5260","Excellence, Achievement & Learning Limited","Excellence, Achievement & Learning Limited","EAL","customercare@eal.org.uk","http://www.eal.org.uk","Unit 2, The Orient Centre","Greycaine Road ","Watford ","Hertfordshire","WD24 7GP","United Kingdom","01923-652400","Recognised","2010-04-01 00:00:00.0000000",,"Recognised","2016-05-04 00:00:00.0000000",
"RN6125","The Institute of Certified Bookkeepers ","The Institute of Certified Bookkeepers","ICB","apprenticeships@bookkeepers.org.uk","www.bookkeepers.org.uk","Chancery House","Chancery Lane",,"London","WC2A 1QS","United Kingdom","020 3405 4000","Recognised","2023-09-27 00:00:00.0000000",,"Never been recognised",,
"RN5154","NALP","NALP","NALP","info@nationalparalegals.co.uk","http://nationalparalegals.co.uk","Office 1, First Floor Offices","Dragon Bridge House","253-259 Whitehall Road","Leeds","LS12 6ER","United Kingdom","0207 112 8034","Recognised","2010-04-01 00:00:00.0000000",,"Surrendered","2016-05-04 00:00:00.0000000","2016-09-01 00:00:00.0000000"
"RN5168","The Swimming Teachers Association Limited","The Swimming Teachers Association Limited","STA","sta@sta.co.uk","www.sta.co.uk","Anchor House","Birch Street","Walsall","West Midlands","WS2 8HZ","United Kingdom","01922 645097","Recognised","2010-04-01 00:00:00.0000000",,"Surrendered","2016-05-04 00:00:00.0000000","2019-07-22 00:00:00.0000000"
"RN5325","iCan Qualifications Limited","iCan Qualifications Limited","iCQ","regulators@icanqualify.co.uk","http://www.icanqualify.co.uk","4th Floor, Salt Quay House","Sutton Harbour","Plymouth","Devon","PL4 0HP","United Kingdom","02038979293","Recognised","2010-12-17 00:00:00.0000000",,"Recognised","2016-05-04 00:00:00.0000000",
"RN5266","BHS Qualifications","The British Horse Society Qualifications Limited","BHSQ","enquiries@bhsq.co.uk","https://www.bhsq.co.uk/","Abbey Park","Stareton","Kenilworth","Warwickshire","CV8 2XZ","United Kingdom","02476 840544","Recognised","2010-04-01 00:00:00.0000000",,"Recognised","2016-05-04 00:00:00.0000000",
"RN5256","BPEC Certification Ltd","BPEC Certification Ltd","BPEC","kclark@bpec.org.uk","http://www.bpec.org.uk","2 Mallard Way","Pride Park","Derby","Derbyshire","DE24 8GX","United Kingdom","0845 644 6558","Recognised","2010-08-31 00:00:00.0000000",,"Surrendered","2016-05-04 00:00:00.0000000","2019-12-16 00:00:00.0000000"
"RN6017","PADI EMEA Limited","PADI EMEA Limited","PADI","training.emea@padi.com","https://www.padi.com/","The Pavilions","Bridgwater Road","Bristol",,"BS13 8AE","United Kingdom","+441173007234","Recognised","2019-11-19 00:00:00.0000000",,"Never been recognised",,
"RN6046","ICAS","The Institute of Chartered Accountants of Scotland","ICAS","pwilcock@icas.com","www.icas.com","CA House","21 Haymarket Yards",,"Edinburgh","EH12 5BH","United Kingdom","01313470100","Recognised","2021-12-30 00:00:00.0000000",,"Never been recognised",,
"RN6076","EngEPA Ltd","ENGEPA Ltd","EngEPA","vic.walsh@engepa.co.uk","http://www.engepa.co.uk","The FOUNDRY","Office Suite 5 2nd Floor","Yorke Street","Wrexham","LL13 8LW","United Kingdom","07533031113","Recognised","2022-04-05 00:00:00.0000000",,"Never been recognised",,
"RN6108","NEBOSH","The National Examination Board in Occupational Safety and Health","NEBOSH","april.chaplin@nebosh.org.uk","www.nebosh.org.uk","NEBOSH","5 Dominus Way","Meridian Business Park","Leicester","LE19 1QW","United Kingdom","0116 2634700","Recognised","2023-01-30 00:00:00.0000000",,"Never been recognised",,
"RN5265","British Gymnastics","British Gymnastics","BG","info@british-gymnastics.org",,"Ford Hall","Lilleshall National Sports Centre","Newport","Shropshire","TF10 9NB","United Kingdom","0845 129 7129","Surrendered","2010-04-01 00:00:00.0000000","2012-04-23 00:00:00.0000000","Never been recognised",,
"RN5198","VTCT","Vocational Training Charitable Trust","VTCT","customersupport@vtct.org.uk","http://www.vtct.org.uk","Aspire House","Annealing Close","Eastleigh","Hampshire","SO50 9PX","United Kingdom","023 8068 4500","Recognised","2010-04-01 00:00:00.0000000",,"Recognised","2016-05-04 00:00:00.0000000",
"RN5135","ETC Awards Limited","ETC Awards Limited","ETCAL","steve.walker@eta-gms.com","http://www.eta-gms.com","313 City East Business Centre","68-72 Newtownards Road","Belfast","Northern Ireland ","BT4 1GW","United Kingdom","028 – 9094 1690","Recognised","2010-04-01 00:00:00.0000000",,"Recognised","2016-05-04 00:00:00.0000000",
"RN5258","Institute of Commercial Management","The Institute of Commercial Management","IOCM","theresa.barlow@icm.education","https://www.icm.education/","ICM House","Castleman Way","Ringwood","Hampshire","BH24 3BA","United Kingdom","01202-490555","Surrendered","2010-04-01 00:00:00.0000000","2015-10-01 00:00:00.0000000","Never been recognised",,
"RN6069","Chartered Institute for Archaeologists","Chartered Institute for Archaeologists","CIfA","assessment@archaeologists.net","www.archaeologists.net","Power Steele Building","Wessex Hall, Whiteknights Road","Earley","Reading","RG6 6DE","United Kingdom","0118 966 2841","Recognised","2022-03-31 00:00:00.0000000",,"Never been recognised",,
"RN5139","Institute of Administrative Management","Institute of Administrative Management (The)","IAM","info@instam.org","www.instam.org","C/O Begbies Traynor (Central) LLP","10th Floor Temple Point, 1 Temple Row","Birmingham",,"B2 5LG","United Kingdom","02070912600","Surrendered","2010-04-01 00:00:00.0000000","2014-03-31 00:00:00.0000000","Never been recognised",,
"RN5329","OCN North East Region","OCN North East Region","OCNNER","admin@ocnner.org.uk","www.ocnner.org.uk","1 Palmer Road","South West Industrial Estate","Peterlee","Co Durham","SR8 2HU","United Kingdom","0191 518 6550","Surrendered","2011-03-03 00:00:00.0000000","2014-01-02 00:00:00.0000000","Never been recognised",,
"RN5282","Award Scheme Development and Accreditation Network","ASDAN","ASDAN","compliance@asdan.org.uk","http://www.asdan.org.uk","Wainbrook House, "," Hudds Vale Road, St George","Bristol","UK","BS5 7HY","United Kingdom","0117 941 1126","Recognised","2010-04-01 00:00:00.0000000",,"Recognised","2016-05-04 00:00:00.0000000",
"RN5118","BIIAB","BIIAB Qualifications Ltd","BIIAB","CustomerSupport@biiab.co.uk","http://www.biiab.org","BIIAB Qualifications Ltd","Robins Wood House","Robins Wood Road","Nottingham","NG8 3NH","United Kingdom","0115 854 1630","Recognised","2010-04-01 00:00:00.0000000",,"Recognised","2016-05-04 00:00:00.0000000",
"RN6087","GP Strategies Assessment Services Limited","GP Strategies Training Ltd","GPSAS","EPA@gpstrategies.com","www.gp-sas.co.uk","3rd Floor","1 Ashley Road","Altrincham","Cheshire","WA14 2DT","United Kingdom","01158579377","Recognised","2022-06-02 00:00:00.0000000",,"Never been recognised",,
"RN5159","Qualifications Network","Qualifications Network Limited","QNUK","Centres@QNUK.org","http://qualifications-network.co.uk","Unit 9","Brooklands Court","Kettering","Northamptonshire","NN15 6FD","United Kingdom","020 3795 0559","Recognised","2010-04-01 00:00:00.0000000",,"Recognised","2016-05-04 00:00:00.0000000",
"RN5114","Swim England Qualifications","Amateur Swimming Association (Swim England) Limited","SEQ","info@swimenglandqualifications.com","http://swimenglandqualifications.com","Swim England Qualifications, Sportpark","3 Oakwood Drive","Loughborough",,"LE11 3QF","United Kingdom","01509 640493","Recognised","2010-04-01 00:00:00.0000000",,"Never been recognised",,
"RN5283","Kaplan Professional Awards","Kaplan Professional Awards Limited","KPA","kpaenquiries@kaplan.co.uk","http://kaplan-professional-awards.kaplan.co.uk","Kaplan Professional Awards","4th Floor","179 - 191 Borough High Street","London","SE1 1HR","United Kingdom","0207 645 8912","Recognised","2010-04-01 00:00:00.0000000",,"Surrendered","2016-05-04 00:00:00.0000000","2017-10-19 00:00:00.0000000"
"RN5333","Alzheimer's Society","Alzheimer's Society","ASAO","brian.hallam@alzheimers.org.uk","www.alzheimers.org.uk","Devon House","58 St Katherine's Way","London",,"E1W 1JX","United Kingdom","020 7423 3500","Withdrawn","2011-04-13 00:00:00.0000000","2011-09-16 00:00:00.0000000","Never been recognised",,
"RN6074","Chartered Institute of Internal Auditors","Chartered Institute of Internal Auditors","Chartered IIA","frances.overton@iia.org.uk","iia.org.uk","Wimbledon Business Centre","The Old Town Hall","4 Queen's Road","London","SW19 8YB","United Kingdom","020 7498 0101","Recognised","2022-03-31 00:00:00.0000000",,"Never been recognised",,
"RN6029","Qualifications for Industry","Qualifications for Industry Limited","QFI","admin@qfi.org.uk","https://qfi.org.uk/","93 George Street",,,"Edinburgh","EH2 3ES","United Kingdom","0131 243 2514 ","Recognised","2021-03-05 00:00:00.0000000",,"Never been recognised",,
"RN5172","WJEC-CBAC","WJEC-CBAC Ltd","WJEC","rits@wjec.co.uk","http://www.wjec.co.uk","245 Western Avenue",,"Cardiff",,"CF5 2YX","United Kingdom","02920265000","Recognised","2010-04-01 00:00:00.0000000",,"Recognised","2010-04-01 00:00:00.0000000",
"RN5233","Awarding Body for Vocational Achievement (AVA) Ltd","Awarding Body for Vocational Achievement (AVA) Ltd","BAA","public.enquiries@ofqual.gov.uk","http://www.ofqual.gov.uk","27 Sheet Street","Windsor",,,"SL4 1BN","United Kingdom","020 3642 1330","Withdrawn","2010-04-01 00:00:00.0000000","2018-05-04 00:00:00.0000000","Surrendered","2016-05-04 00:00:00.0000000","2017-10-13 00:00:00.0000000"
"RN5131","Confederation of Tourism and Hospitality","CTH Awards Limited","CTH","marina.pareas@cthawards.com","http://www.cthawards.com","231 Vauxhall Bridge Road"," Victoria",,"London","SW1V 1AD","United Kingdom","02079534006","Recognised","2010-04-01 00:00:00.0000000",,"Surrendered","2016-05-04 00:00:00.0000000","2019-02-25 00:00:00.0000000"
"RN5203","McDonalds","McDonald's Restaurants Ltd","McDonalds","Mary.Payne@uk.mcd.com","http://www.mcdonalds.co.uk","McDonald's Restaurants Ltd","11-59 High Road","East Finchley","London","N2 8AW","United Kingdom","0208 700 7381","Surrendered","2010-04-01 00:00:00.0000000","2017-10-09 00:00:00.0000000","Surrendered","2016-05-04 00:00:00.0000000","2017-04-30 00:00:00.0000000"
"RN5188","BCS, The Chartered Institute for IT","British Computer Society","BCS","qualifications@bcs.uk","http://www.bcs.org","3 Newbridge Square","Milford Street","Swindon","Wiltshire","SN1 1BY","United Kingdom","01793 417417","Recognised","2010-04-01 00:00:00.0000000",,"Recognised","2016-05-04 00:00:00.0000000",
"RN6009","Prospect Awards CIC","Prospect Awards CIC","Prospect Awards","helpdesk@prospectawards.org","https://prospectawards.org/","The Studio","21B Garrison Road","Magherafelt","Northern Ireland","BT45 8RD","United Kingdom","02879469404","Never been recognised",,,"Surrendered","2019-02-25 00:00:00.0000000","2022-01-18 00:00:00.0000000"
"RN5216","1st4sport","UK Coaching Solutions Limited","1st4sport","cst@1st4sportqualifications.com","http://www.1st4sport.com","2 City Walk","Leeds",,"West Yorkshire","LS11 9AR","United Kingdom","0113 290 7610","Recognised","2010-04-01 00:00:00.0000000",,"Recognised","2016-05-04 00:00:00.0000000",
"RN6110","safeagent","Approved Letting Scheme Limited","safeagents","info@safeagents.co.uk","safeagents.co.uk","Cheltenham Office Park","Hatherley Lane",,"Cheltenham","GL51 6SH","United Kingdom","01242 581712","Recognised","2023-03-03 00:00:00.0000000",,"Never been recognised",,
"RN6084","National Logistics Training Consortium","National Logistics Training Consortium Ltd","NLTC","info@nltc.org.uk","nltc.co.uk","National Logistics Training Consortium","119 - 120 Pioneer House","North Road","Ellesmere Port","CH65 1AD","United Kingdom","0151 363 2501","Recognised","2022-05-24 00:00:00.0000000",,"Never been recognised",,
"RN5240","NPTC","The City and Guilds of London Institute (NPTC)","NPTC","regulation@cityandguilds.com","www.cityandguilds.com","1 Giltspur Street",,"London",,"EC1A 9DD","United Kingdom","0207 294 2468","Surrendered","2010-04-01 00:00:00.0000000","2012-04-23 00:00:00.0000000","Never been recognised",,
"RN5334","ProQual Awarding Body","ProQual AB Limited","ProQual","jangrant@proqualab.com","http://www.proqualab.com","ProQual House","Unit 1, Innovation Drive","Newport","East Yorkshire","HU15 2GX","United Kingdom","01430 423822","Recognised","2011-04-13 00:00:00.0000000",,"Recognised","2016-05-04 00:00:00.0000000",
"RN6079","Chartered Institute of Ecology and Environmental Management","Chartered Institute of Ecology and Environmental Management","CIEEM","enquiries@cieem.net","www.cieem.net","Grosvenor Court","Ampfield Hill",,"Ampfield","SO51 9BD","United Kingdom","01962868626","Recognised","2022-05-03 00:00:00.0000000",,"Never been recognised",,
"RN5343","Open College Network West Midlands","Open College Network West Midlands","Open College Network West Midlands","s.cockbill@opencollnet.org.uk","http://www.opencollnet.org.uk","Aldersley House","Overstrand","Pendeford Business Park","Wolverhampton","WV9 5HA","United Kingdom","01902 624230","Surrendered","2011-05-26 00:00:00.0000000","2023-03-31 00:00:00.0000000","Surrendered","2016-05-04 00:00:00.0000000","2016-07-31 00:00:00.0000000"
"RN5288","New Era Academy of Drama and Music (London) Ltd","The New Era Academy of Drama and Music (London) Ltd","NEA","derren.nesbitt@neweraacademy.co.uk","http://www.neweraacademy.co.uk","2 Aglaia Road",,"Worthing","West Sussex","BN11 5SN","United Kingdom","01903 246790","Recognised","2010-04-01 00:00:00.0000000",,"Recognised","2016-05-04 00:00:00.0000000",
"RN5291","Qualsafe Awards","Qualsafe Limited","Qualsafe","info@qualsafeawards.org","http://qualsafeawards.org","City View","3 Wapping Road","Bradford","West Yorkshire","BD3 0ED","United Kingdom","0330 660 0899","Recognised","2010-09-27 00:00:00.0000000",,"Recognised","2016-05-04 00:00:00.0000000",
"RN5169","Trinity College London","Trinity College London","TCL","info@trinitycollege.com","http://www.trinitycollege.com","Blue Fin Building","110 Southwark Street","London",,"SE1 0TA","United Kingdom","020 3752 4700","Recognised","2010-04-01 00:00:00.0000000",,"Recognised","2016-05-04 00:00:00.0000000",
"RN6064","Verge EPA ","Verge EPA Limited","Verge EPA","alister@verge365.co.uk","www.verge365.co.uk","4 St Andrew's Drive","Alwoodley",,"Leeds","LS17 7TR","United Kingdom","+447866416044","Recognised","2022-01-24 00:00:00.0000000",,"Never been recognised",,
"RN5284","OTHM Qualifications","OTHM Qualifications","OTHM","info@othm.org.uk","http://www.othm.org.uk","8 Waterside Court, Galleon Boulevard","Crossways Business Park","Dartford","Kent","DA2 6NX","United Kingdom","020 7118 4243","Recognised","2010-04-01 00:00:00.0000000",,"Surrendered","2016-05-04 00:00:00.0000000","2016-08-03 00:00:00.0000000"
"RN5199","AABPS (Withdrawn 21 July 2014)","Accrediting & Assessment Bureau for Post-Secondary Schools Ltd","AABPS","info@aabps.co.uk","www.aabps.co.uk","224-236 Walworth Road",,"London",,"SE17 1JE","United Kingdom","02077019410","Withdrawn","2010-06-28 00:00:00.0000000","2014-08-01 00:00:00.0000000","Never been recognised",,
"RN5140","International Baccalaureate Organisation","International Baccalaureate Organization","IBO","accreditation@ibo.org","http://www.ibo.org","International Baccalaureate Organization (IBO)"," Rue du Pré-de-la-Bichette, 1","Genève ","Switzerland","CH-1202 ","Switzerland","+41 22 309 2540","Recognised","2010-04-01 00:00:00.0000000",,"Surrendered","2016-05-04 00:00:00.0000000","2017-10-19 00:00:00.0000000"
"RN5285","Institute of Revenues Rating and Valuation","The Institute of Revenues Rating and Valuation","IRRV","sue.williams-lee@irrv.org.uk","http://www.irrv.net","167-169 Great Portland Street, 5th Floor",,,"London","W1W 5PF","United Kingdom","0207 831 3505","Recognised","2010-04-01 00:00:00.0000000",,"Surrendered","2016-05-04 00:00:00.0000000","2018-08-03 00:00:00.0000000"
"RN5322","AIM Qualifications","AIM Qualifications and Assessment Group","AIM ","enquiries@aim-group.org.uk","http://www.aim-group.org.uk","3 Pride Point","Pride Park","Derby",,"DE24 8BX","United Kingdom","01332 341822","Recognised","2010-11-01 00:00:00.0000000",,"Recognised","2016-05-04 00:00:00.0000000",
"RN6024","Autoexel Ltd","Autoexel Ltd","Autoexel Ltd","enquiries@autoexel.org.uk","https://autoexel.org.uk","21 The Quadrant","Barton Lane",,"Abingdon","OX14 3YS ","United Kingdom","0330 22 34 339","Recognised","2020-05-01 00:00:00.0000000",,"Never been recognised",,
"RN5173","WJEC-EDEXCEL-CBAC","WJEC- EDEXCEL partnership","WJEC-EDEXCEL","rits@wjec.co.uk","www.wjec.co.uk","245 Western Avenue","Llandaff","Cardiff",,"CF5 2YX","United Kingdom","02920265000","Surrendered","2010-04-01 00:00:00.0000000","2014-09-01 00:00:00.0000000","Never been recognised",,
"RN5250","The Chartered Institute of Logistics and Transport in the UK","The Chartered Institute of Logistics and Transport in the UK","CILT(UK)","ao@ciltuk.org.uk","http://www.ciltuk.org.uk","Earlstrees Court","Earlstrees Road ","Corby","Northants","NN17 4AX","United Kingdom","01536 740170","Recognised","2010-04-01 00:00:00.0000000",,"Recognised","2016-05-04 00:00:00.0000000",
"RN5352","Accountants Institute","Accountants Inst. Ltd","AI","public.enquiries@ofqual.gov.uk","http://www.ofqual.gov.uk","36 New King St","Bath",,,"BA1 2BN","United Kingdom","01225437472","Surrendered","2013-02-12 00:00:00.0000000","2018-02-28 00:00:00.0000000","Surrendered","2016-05-04 00:00:00.0000000","2017-10-18 00:00:00.0000000"
"RN5279","Associated Sports Qualifications","Associated Sports Qualifications LLP","ASQ","rachelpalmer@asq.org.uk","http://www.asq.org.uk","Ping House","The Belfry","Sutton Coldfield","West Midlands","B76 9PW","United Kingdom","01675 624764","Recognised","2010-04-01 00:00:00.0000000",,"Recognised","2016-05-04 00:00:00.0000000",
"RN5197","PIABC Ltd","PIABC Ltd","PIABC","piabc@iom3.org","http://www.piabc.org.uk","The Boilerhouse","Caunt Road","Grantham","Lincolnshire","NG31 7FZ","United Kingdom","01476 513884","Recognised","2010-04-01 00:00:00.0000000",,"Recognised","2016-05-04 00:00:00.0000000",
"RN6088","Sheldrake Training Limited","Sheldrake Training Limited","Sheldrake","epa@sheldraketraining.co.uk","www.sheldraketraining.co.uk","Old Fire Station Enterprise Centre","Salt Lane",,"Salisbury","SP1 1DU","United Kingdom","01980845789","Recognised","2022-06-27 00:00:00.0000000",,"Never been recognised",,
"RN6119","RPD Ltd","Rail Professional Development Limited","RPD","pd@rpd.co.uk","www.rpd.co.uk","RPD Ltd, Cranes House","5 Paycocke Road",,"Basildon","SS143dp","United Kingdom","01268 822842","Recognised","2023-07-11 00:00:00.0000000",,"Never been recognised",,
"RN5278","RLSS UK Qualifications","IQL UK Limited","RLSS UK Qualifications","richardflavell@rlss.org.uk","https://www.rlss.org.uk","RLSS UK Qualifications","Red Hill House","227 London Road","Worcester","WR5 2JG","United Kingdom","0300 3230 096","Recognised","2010-04-01 00:00:00.0000000",,"Recognised","2016-05-04 00:00:00.0000000",
"RN6022","iPET Network Limited","iPET Network Limited","iPET Network","info@ipetnetwork.co.uk","www.ipetnetwork.co.uk","iPET Network ","71 Clifton Drive ","Northwich","Cheshire","CW9 8BQ","United Kingdom","07739205401","Recognised","2020-02-14 00:00:00.0000000",,"Recognised","2020-07-20 00:00:00.0000000",
"XX1290","Insurance Industry Training Council","Insurance Industry Training Council","IITC","","http://www.ofqual.gov.uk/",,,,,,,,"Withdrawn","2010-10-28 00:00:00.0000000","2010-10-28 00:00:00.0000000","Never been recognised",,
"RN5204","Innovate Awarding","Innovate Awarding Ltd","IAO","contactus@innovateawarding.org","http://www.innovateawarding.org","Block F","291 Paintworks","Arnos Vale","Bristol","BS4 3AW","United Kingdom","01173142800","Recognised","2010-04-01 00:00:00.0000000",,"Surrendered","2016-05-04 00:00:00.0000000","2018-07-26 00:00:00.0000000"
"RN5166","Leadership Skills Foundation","The British Sports Trust (T/A as Sports Leaders UK)","Leadership Skills Foundation","hello@leadershipskillsfoundation.org","http://www.leadershipskillsfoundation.org","Leadership Skills Foundation","Bradwell Road","Loughton Lodge","Milton Keynes","MK8 9LA","United Kingdom","01908 689180","Recognised","2010-04-01 00:00:00.0000000",,"Recognised","2016-05-04 00:00:00.0000000",
"RN6092","Accelerate People Limited","Accelerate People Limited","AP Ltd","lynn@accelerate-people.co.uk","https://www.accelerate-people.co.uk/","Scale Space","58 Wood Lane",,"London","W12 7RZ","United Kingdom","07971256193","Recognised","2022-07-26 00:00:00.0000000",,"Never been recognised",,
"RN6118","Railway Competence Group","Railway Competence Group Ltd","RCG","daniel.mindurski@railwaycompetencegroup.co.uk","railwaycompetencegroup.co.uk","Albion Wharf","19 Albion Street","Manchester","MANCHESTER","M1 5LN","United Kingdom","07956110523","Recognised","2023-06-21 00:00:00.0000000",,"Never been recognised",,
"RN5335","University of East London Global Examinations Board","University of East London Global Examinations Board","UELGB","rachaelmeech@hotmail.com","www.uelglobalexams.com","29th Floor One Canada Square","Canary Wharf","London",,"E14 5DY","United Kingdom","0207 7126553","Surrendered","2011-04-28 00:00:00.0000000","2013-03-01 00:00:00.0000000","Never been recognised",,
"RN5234","Hospitality Awarding Body","The City and Guilds of London Institute (HAB)","HAB","regulation@cityandguilds.com","http://www.cityandguilds.com","1 Giltspur Street",,"London",,"EC1A 9DD","United Kingdom","0207 294 2468","Surrendered","2010-04-01 00:00:00.0000000","2013-11-01 00:00:00.0000000","Never been recognised",,
"RN5351","SFJ Awards Ltd","SFJ Awards Ltd","SFJ Awards Ltd","info@sfjawards.com","http://www.sfjawards.com","1st Floor, Unit C, Meadowcourt Business Park","4 Hayland Street","Sheffield","South Yorkshire","S9 1BY","United Kingdom","0114 284 1970","Recognised","2012-05-08 00:00:00.0000000",,"Recognised","2016-05-04 00:00:00.0000000",
"RN6089","Construction EPA Company","North West Skills Academy Ltd","Construction EPA Company","samuelriley@constructionepa.com","https://www.constructionepa.com/","Construction EPA Company","Preston New Road","Samlesbury","Preston","PR5 0UP","United Kingdom","0345 601 9576","Recognised","2022-06-28 00:00:00.0000000",,"Never been recognised",,
"RN6115","Institute of Risk Management","Institute of Risk Management","IRM","barbara.amponsah-abedi@theirm.org","www.theirm.org","2nd Floor","Sackville House","143-149 Fenchurch Street","London","EC3M 6BN","United Kingdom","02077099808","Recognised","2023-04-27 00:00:00.0000000",,"Never been recognised",,
"RN5184","FDQ Limited","FDQ Limited","FDQ","fdq@fdq.org.uk","http://www.fdq.org.uk","FDQ Ltd, Pure Offices","4100 Park Approach, Thorpe Park","Leeds","West Yorkshire","LS15 8GB","United Kingdom","0113 859 1266","Recognised","2010-04-01 00:00:00.0000000",,"Recognised","2016-05-04 00:00:00.0000000",
"RN6041","NQual","NQual LTD","NQual","arobertson@nqual.co.uk","www.nqual.co.uk","Unit 11","Penketh Business Park","Liverpool Road","Warrington","WA5 2TJ","United Kingdom","01925931684","Recognised","2021-09-28 00:00:00.0000000",,"Never been recognised",,
"RN6081","The Real Consultancy Company","The Real Consultancy Company Ltd","TRCC","abirch@therealconsultancycompany.com","www.therealconsultancycompany.com","Highland House","Mayfield Close","Chandler's Ford","Eastleigh","SO53 4AR","United Kingdom","07557 652591","Recognised","2022-05-16 00:00:00.0000000",,"Never been recognised",,
"RN6015","N.I. Security Qualifications Ltd","N.I. Security Qualifications Ltd","NISQ","wmcdowell@NISQ.uk","https://nisq.uk","51, Old Ballygowan Road","Comber","County Down","Northern Ireland","BT23 5NP","United Kingdom","02891871329","Never been recognised",,,"Recognised","2019-09-02 00:00:00.0000000",
"RN6028","Energy & Utilities Independent Assessment Service","ENERGY AND UTILITY SKILLS LIMITED","EUIAS","enquiries@euias.co.uk","www.euias.co.uk","Avon House","435, Stratford Road","Shirley","Solihull","B90 4AA","United Kingdom","0121 7138310","Recognised","2021-02-23 00:00:00.0000000",,"Never been recognised",,
"RN5119","British Safety Council","British Safety Council","BSC","qualifications@britsafe.org","http://www.britsafe.org","70 Chancellors Road",,,"London","W6 9RS","United Kingdom","020 8741 1231","Recognised","2010-04-01 00:00:00.0000000",,"Surrendered","2016-05-04 00:00:00.0000000","2021-10-15 00:00:00.0000000"
"RN5231","Counselling and Psychotherapy Central Awarding Body","CPCAB Ltd","CPCAB","admin@cpcab.co.uk","http://www.cpcab.co.uk","PO Box 1768",,"Glastonbury","Somerset","BA6 8YP","United Kingdom","01458850350","Recognised","2010-04-01 00:00:00.0000000",,"Recognised","2016-05-04 00:00:00.0000000",
"RN6090","Good 2 Go","Qualitrain Ltd","G2G","Alan.Bates@qualitrain.co.uk","www.good2goawards.org.uk","Pride Park","26 Royal Scot","Derby ","Derby","DE24 8AJ","United Kingdom","01332 345205","Recognised","2022-06-30 00:00:00.0000000",,"Never been recognised",,
"RN5138","Graded Qualifications Alliance","Graded Qualifications Alliance","GQAL","info@gqal.org","http://www.gqal.org","International Arts Centre","Garden Street","Leicester","Leicestershire","LE1 3UA","United Kingdom","0116 2624122","Recognised","2010-04-01 00:00:00.0000000",,"Recognised","2016-05-04 00:00:00.0000000",
"RN5276","Institute of Operations Management","The Institute of Operations Management, a Trading Arm of The Chartered Institute of Logistics and Transport in the UK","IOM","quals@iomnet.org.uk","www.iomnet.org.uk","Earlstree Court","Earlstree Road","Corby","Northamptonshire","NN17 4AX","United Kingdom","01536 740100","Surrendered","2010-04-01 00:00:00.0000000","2014-10-01 00:00:00.0000000","Never been recognised",,
"RN6035","The British Council","The British Council","The British Council","GlobalAssessmentsTeam@britishcouncil.org","https://www.britishcouncil.org/","1 Redman Place, Stratford","British Council ",," London ","E20 1JQ","United Kingdom","020 7389 4385","Recognised","2021-07-15 00:00:00.0000000",,"Never been recognised",,
"RN6052","Military Independent Assessment Authority (Royal Air Force)","Royal Air Force","MIAA (RAF)","duncan.pope806@mod.gov.uk","www.raf.mod.uk","Military Independent Assessment Authority (RAF)","Kestrel Court","Waterwells Road","Gloucester","GL2 2AT","United Kingdom","07825 218391","Recognised","2021-11-25 00:00:00.0000000",,"Never been recognised",,
"RN6106","The Qualification Hub","The Qualification Hub Ltd","TQH","lois@thequalificationhub.com","https://thequalificationhub.com/","Old Gasworks Business Park","1st Floor Unit 1a Kilmorey Street","Newry","County Down","BT34 2DH","United Kingdom","07812 599980","Never been recognised",,,"Recognised","2023-01-09 00:00:00.0000000",
"RN5174","WSET Awards","Wine & Spirit Education Trust","WSET","janderson@wsetglobal.com","http://www.wsetglobal.com","39-45","Bermondsey Street","London","London","SE1 3XF","United Kingdom","020 7089 3800","Recognised","2010-04-01 00:00:00.0000000",,"Surrendered","2016-05-04 00:00:00.0000000","2016-09-19 00:00:00.0000000"
"RN5195","MP Awards","Mineral Products Qualifications Council","MPQC","ruth.swaby@mpawards.co.uk","http://www.mpawards.co.uk","MP House","4a Meadowbank Way","Eastwood","Nottingham","NG16 3SB","United Kingdom","0115 972 6121","Recognised","2010-04-01 00:00:00.0000000",,"Surrendered","2016-05-04 00:00:00.0000000","2016-08-15 00:00:00.0000000"
"RN6013","Insulation Environmental Training Trust Ltd","Insulation Environmental Training Trust Ltd","IETTL","iettl@tica.uk.com","https://tica-acad.co.uk/iettl-tica/","TICA House","Allington Way","Yarm Road Business Park","Darlington","DL1 4QB","United Kingdom","01325466704","Recognised","2019-07-05 00:00:00.0000000",,"Never been recognised",,
"RN6038","CIPFA ","Chartered Institute of Public Finance and Accountancy","CIPFA","customerservices@cipfa.org","https://www.cipfa.org","The Chartered Institute of Public Finance and Acco","7 Mansell Street, ",,"London","E1 8AN","United Kingdom","(0)20 7543 5600","Recognised","2021-12-30 00:00:00.0000000",,"Never been recognised",,
"RN5149","Education & Media Services Ltd trading as ITEC","Education & Media Services Ltd","ITEC","info@itecworld.co.uk","http://www.itecworld.co.uk","Chiswick Gate","298-608 Chiswick High Road","London",,"W4 5RT","United Kingdom","0208 994 4141","Surrendered","2010-04-01 00:00:00.0000000","2018-01-05 00:00:00.0000000","Surrendered","2016-05-04 00:00:00.0000000","2018-01-09 00:00:00.0000000"
"RN5239","Active IQ","Active IQ Limited","Active IQ","lee@activeiq.co.uk","http://www.activeiq.co.uk","Q6 Quorum Business Park",,,"Newcastle Upon Tyne","NE12 8BT","United Kingdom","01480467950","Recognised","2010-04-01 00:00:00.0000000",,"Recognised","2016-05-04 00:00:00.0000000",
"RN5187","PAA\VQSET","The Process Awards Authority (T/A PAA/VQ-SET)","PAA\VQSET","info@paa-uk.org","http://www.paa-uk.org","Unit 1, Twelve O'clock Court","Attercliffe Rd","Sheffield","South Yorkshire","S4 7WW","United Kingdom","01142720033","Surrendered","2010-04-01 00:00:00.0000000","2021-04-30 00:00:00.0000000","Surrendered","2016-05-04 00:00:00.0000000","2016-09-16 00:00:00.0000000"
"RN5261","British Canoeing Awarding Body","British Canoeing","BCAB","enquiries@britishcanoeingawarding.co.uk","https://www.britishcanoeingawarding.org.uk/","British Canoeing","National Water Sports Centre. Adbolton Lane. ","Holme Pierrepont","Nottinghamshire","NG12 2LU","United Kingdom","0300 011 9500","Recognised","2010-04-01 00:00:00.0000000",,"Recognised","2016-05-04 00:00:00.0000000",
"RN6045","Suffolk County Council","Suffolk County Council","SCC","jacqui.phipps@suffolk.gov.uk","www.suffolk.gov.uk","Endeavour House","Russell Road",,"Ipswich","IP1 2BX","United Kingdom","0345 606 6067","Recognised","2021-12-30 00:00:00.0000000",,"Never been recognised",,
"RN5222","Association of International Accountants","The Association of International Accountants","AIA","david.potts@aiaworldwide.com","http://www.aiaworldwide.com","Staithes 3 The Watermark","Metro Riverside","Newcastle upon Tyne","Tyne and Wear","NE11 9SN","United Kingdom","0191 4930277","Surrendered","2010-04-01 00:00:00.0000000","2020-06-05 00:00:00.0000000","Never been recognised",,
"RN5303","SFEDI Enterprises Ltd. T/A SFEDI Awards","SFEDI Enterprises Ltd","SFEDI Awards","customerservices@sfediawards.com","http://www.sfediawards.com","53 Coniscliffe Road","Darlington","County Durham",,"DL3 7EH","United Kingdom","0845 224 5928","Recognised","2010-10-21 00:00:00.0000000",,"Surrendered","2016-05-04 00:00:00.0000000","2016-09-26 00:00:00.0000000"
"RN5148","ITC First","ITC First Aid Ltd","ITC","mail@itcfirst.org.uk","http://www.itcfirst.org.uk","Tranquility House","Harbour Walk","Hartlepool","Hartlepool","TS24 0UX","United Kingdom","0345 370 7610","Recognised","2010-04-01 00:00:00.0000000",,"Surrendered","2016-05-04 00:00:00.0000000","2016-08-03 00:00:00.0000000"
"RN5202","Propertymark Qualifications","Propertymark Qualifications Ltd","Propertymark","qualifications@propertymark.co.uk","http://www.propertymarkqualifications.co.uk","Arbon House","6 Tournament Court, Edgehill Drive","Warwick","Warwickshire","CV34 6LG","United Kingdom","01926 417794","Recognised","2010-04-01 00:00:00.0000000",,"Recognised","2016-05-04 00:00:00.0000000",
"RN6058","The Transport Planning Society","The Transport Planning Society Ltd","TPS","info@tps.org.uk","www.tps.org.uk","1 Great George Street","Westminster",,"London","SW1P 3AA","United Kingdom","07788724827","Recognised","2021-12-23 00:00:00.0000000",,"Never been recognised",,
"RN6082","Cornwall Council (Cornwall Fire and Rescue Service)","Cornwall Council (Cornwall Fire and Rescue Service)","CFRS","EPAPartnership@nationalfirechiefs.org.uk","https://www.nationalfirechiefs.org.uk/epa","New County Hall",,,"Truro","TR1 3AY","United Kingdom","07812672254","Recognised","2022-05-19 00:00:00.0000000",,"Never been recognised",,
"RN6129","RLSS UK Qualifications","RLSS UK Enterprises Ltd","RLSS UK Qualifications","compliance@rlss.org.uk","https://www.rlss.org.uk/","RLSS UK Qualifications","Red Hill House","227 London Road","Worcester","Wr5 2jg","United Kingdom","0300 323 0096","Recognised","2023-12-27 00:00:00.0000000",,"Recognised","2024-01-05 00:00:00.0000000",
"RN5337","OCN London","Open College Network London Region","OCNLR","c.cubillo-barsi@ocnlondon.org.uk","http://www.ocnlondon.org.uk","24 Angel Gate","City Road","London","Greater London","EC1V 2PT","United Kingdom","020 7278 5511","Recognised","2011-05-12 00:00:00.0000000",,"Surrendered","2016-05-04 00:00:00.0000000","2016-10-03 00:00:00.0000000"
"RN5259","Signature","CACDP Trading as Signature","Signature","Lindsay.foster@signature.org.uk","http://www.signature.org.uk","1st Floor Shannon House","Mandale Business Park","Belmont","County Durham","DH1 1TH","United Kingdom","0191 383 1155","Recognised","2010-04-01 00:00:00.0000000",,"Recognised","2016-05-04 00:00:00.0000000",
"RN5245","Institute of Hospitality","Institute of Hospitality","Institute of Hospita","awardingbody@instituteofhospitality.org","http://www.instituteofhospitality.org","Trinity Court","34 West Street","Sutton","Surrey","SM1 1SH","United Kingdom","020 8661 4900","Surrendered","2010-04-01 00:00:00.0000000","2018-02-28 00:00:00.0000000","Surrendered","2016-05-04 00:00:00.0000000","2016-09-15 00:00:00.0000000"
"RN5319","CFA Society of UK","CFA Society of the UK","CFA UK","info@cfauk.org","http://www.cfauk.org","3rd Floor, Boston House","63‐64 New Broad Street ",,"London","EC2M 1JJ ","United Kingdom","0207 648 6200","Recognised","2010-10-21 00:00:00.0000000",,"Surrendered","2016-05-04 00:00:00.0000000","2016-10-05 00:00:00.0000000"
"RN6033","Royal Aeronautical Society","Royal Aeronautical Society","RAeS","rosalind.azouzi@aerosociety.com","www.aerosociety.com","4 Hamilton Place",,,"London","W1J 7BQ","United Kingdom","07824512941","Recognised","2021-06-16 00:00:00.0000000",,"Never been recognised",,
"RN6070","Institution of Mechanical Engineers","Institution of Mechanical Engineers","IMechE","epa@imeche.org","www.imeche.org","1 Birdcage Walk",,,"London","SW1H 9JJ","United Kingdom","07887931688","Recognised","2022-03-11 00:00:00.0000000",,"Never been recognised",,
"RN5298","United Kingdom Co-ordinating Group","United Kingdom Co-ordinating Group","UKCG","","http://www.ofqual.gov.uk/","12 St. Peters Road","Peterborough","","","NW1 0JF","United Kingdom","0131 465 2892","Withdrawn","2010-10-20 00:00:00.0000000","2010-10-21 00:00:00.0000000","Never been recognised",,
"RN6091","The Learning Institute","Westcountry Schools Trust","TLI","lesley.taylor@learninginstitute.co.uk","https://www.learninginstitute.co.uk","Westcountry Schools Trust","51 Encombe Street","Plymouth","Devon","PL9 7GN","United Kingdom","01752891790","Recognised","2022-06-30 00:00:00.0000000",,"Never been recognised",,
"RN6111","British Marine","British Marine Federation","BM","EPAO@britishmarine.co.uk","https://britishmarine.co.uk/","Tagus House","9 Ocean Way","Southampton","Hampshire","S014 3TJ","United Kingdom","07584563343","Recognised","2023-03-09 00:00:00.0000000",,"Never been recognised",,
"RN6112","Systems Practitioner Assessment Ltd","Systems Practitioner Assessment Ltd.","SPA","contact@systemspractitionerassessment.org","https://www.systemspractitionerassessment.org/","Unit 14","Tower Street","Brunswick Business Park ","Liverpool","L3 4BJ","United Kingdom","01925 755651","Recognised","2023-03-16 00:00:00.0000000",,"Never been recognised",,
"RN6050","Chartered Institution of Highways and Transportation","CIHT","CIHT","professionaldevelopment@ciht.org.uk","https://www.ciht.org.uk/about-us/about-ciht/","Chartered Institution of Highways & Transportation","119 Britannia Walk",,"London","N1 7JE","United Kingdom"," 020 7336 1555","Recognised","2021-11-25 00:00:00.0000000",,"Never been recognised",,
"RN6123","The Rail Academy","The Rail Academy Limited","The Rail Academy","cath.bellamy@therailacademy.com","www.therailacademy.com","4 Brindleyplace","Birmingham","England","Birmingham","B1 2JB","United Kingdom","07776102102","Recognised","2023-09-14 00:00:00.0000000",,"Never been recognised",,
